<?xml version="1.0" encoding="UTF-8" standalone="yes"?>
<gpx version="1.1" creator="https://onthegomap.com" xmlns="http://www.topografix.com/GPX/1/1">
  <metadata>
    <name>10.2km route</name>
    <link href="https://onthegomap.com">
      <text>On The Go Map</text>
    </link>
    <time>2026-05-28T18:11:14.114Z</time>
    <copyright author="On The Go Map, OpenStreetMap Contributors">
      <year>2026</year>
    </copyright>
  </metadata>
  <trk>
    <name>10.2km route</name>
    <trkseg>
      <trkpt lat="-6.56084" lon="106.726"/>
      <trkpt lat="-6.56083" lon="106.72584"/>
      <trkpt lat="-6.5608" lon="106.72551"/>
      <trkpt lat="-6.56019" lon="106.72519"/>
      <trkpt lat="-6.56018" lon="106.72515"/>
      <trkpt lat="-6.56018" lon="106.72479"/>
      <trkpt lat="-6.56018" lon="106.72472"/>
      <trkpt lat="-6.56017" lon="106.72455"/>
      <trkpt lat="-6.56016" lon="106.72371"/>
      <trkpt lat="-6.56015" lon="106.72349"/>
      <trkpt lat="-6.56016" lon="106.72333"/>
      <trkpt lat="-6.56015" lon="106.72257"/>
      <trkpt lat="-6.56016" lon="106.72195"/>
      <trkpt lat="-6.56006" lon="106.72163"/>
      <trkpt lat="-6.55974" lon="106.72104"/>
      <trkpt lat="-6.55926" lon="106.72029"/>
      <trkpt lat="-6.55919" lon="106.7202"/>
      <trkpt lat="-6.55902" lon="106.7201"/>
      <trkpt lat="-6.55882" lon="106.72004"/>
      <trkpt lat="-6.55819" lon="106.71993"/>
      <trkpt lat="-6.55818" lon="106.71992"/>
      <trkpt lat="-6.55778" lon="106.71925"/>
      <trkpt lat="-6.5576" lon="106.71912"/>
      <trkpt lat="-6.5574" lon="106.71904"/>
      <trkpt lat="-6.55714" lon="106.71904"/>
      <trkpt lat="-6.55705" lon="106.71908"/>
      <trkpt lat="-6.5566" lon="106.71941"/>
      <trkpt lat="-6.55659" lon="106.71941"/>
      <trkpt lat="-6.55647" lon="106.71952"/>
      <trkpt lat="-6.55634" lon="106.71967"/>
      <trkpt lat="-6.55628" lon="106.71979"/>
      <trkpt lat="-6.55626" lon="106.71999"/>
      <trkpt lat="-6.55625" lon="106.72012"/>
      <trkpt lat="-6.55629" lon="106.72037"/>
      <trkpt lat="-6.55652" lon="106.72096"/>
      <trkpt lat="-6.55668" lon="106.72142"/>
      <trkpt lat="-6.5567" lon="106.7215"/>
      <trkpt lat="-6.55672" lon="106.72166"/>
      <trkpt lat="-6.55673" lon="106.72174"/>
      <trkpt lat="-6.55673" lon="106.72225"/>
      <trkpt lat="-6.55674" lon="106.72253"/>
      <trkpt lat="-6.55674" lon="106.72255"/>
      <trkpt lat="-6.55675" lon="106.72308"/>
      <trkpt lat="-6.55676" lon="106.72339"/>
      <trkpt lat="-6.55678" lon="106.72378"/>
      <trkpt lat="-6.55676" lon="106.72386"/>
      <trkpt lat="-6.55669" lon="106.72394"/>
      <trkpt lat="-6.5564" lon="106.7241"/>
      <trkpt lat="-6.55638" lon="106.7241"/>
      <trkpt lat="-6.55582" lon="106.72407"/>
      <trkpt lat="-6.55582" lon="106.72406"/>
      <trkpt lat="-6.55584" lon="106.72307"/>
      <trkpt lat="-6.55384" lon="106.72301"/>
      <trkpt lat="-6.55383" lon="106.72292"/>
      <trkpt lat="-6.55377" lon="106.72218"/>
      <trkpt lat="-6.55373" lon="106.72207"/>
      <trkpt lat="-6.55347" lon="106.72169"/>
      <trkpt lat="-6.55379" lon="106.72144"/>
      <trkpt lat="-6.55401" lon="106.72128"/>
      <trkpt lat="-6.55457" lon="106.72084"/>
      <trkpt lat="-6.5546" lon="106.7208"/>
      <trkpt lat="-6.55459" lon="106.72076"/>
      <trkpt lat="-6.55422" lon="106.72019"/>
      <trkpt lat="-6.55417" lon="106.72006"/>
      <trkpt lat="-6.55415" lon="106.71989"/>
      <trkpt lat="-6.55409" lon="106.71874"/>
      <trkpt lat="-6.55409" lon="106.71873"/>
      <trkpt lat="-6.55328" lon="106.71879"/>
      <trkpt lat="-6.55236" lon="106.71883"/>
      <trkpt lat="-6.55184" lon="106.71882"/>
      <trkpt lat="-6.55061" lon="106.7189"/>
      <trkpt lat="-6.55042" lon="106.7189"/>
      <trkpt lat="-6.55042" lon="106.71891"/>
      <trkpt lat="-6.55044" lon="106.7197"/>
      <trkpt lat="-6.55048" lon="106.7198"/>
      <trkpt lat="-6.55052" lon="106.71986"/>
      <trkpt lat="-6.55055" lon="106.71986"/>
      <trkpt lat="-6.5506" lon="106.71987"/>
      <trkpt lat="-6.55232" lon="106.71974"/>
      <trkpt lat="-6.55232" lon="106.71975"/>
      <trkpt lat="-6.55234" lon="106.72001"/>
      <trkpt lat="-6.55239" lon="106.72024"/>
      <trkpt lat="-6.55253" lon="106.72065"/>
      <trkpt lat="-6.55265" lon="106.72084"/>
      <trkpt lat="-6.55286" lon="106.72106"/>
      <trkpt lat="-6.55347" lon="106.72169"/>
      <trkpt lat="-6.55348" lon="106.72171"/>
      <trkpt lat="-6.55347" lon="106.72169"/>
      <trkpt lat="-6.55287" lon="106.72211"/>
      <trkpt lat="-6.55287" lon="106.72212"/>
      <trkpt lat="-6.55309" lon="106.72253"/>
      <trkpt lat="-6.55318" lon="106.72293"/>
      <trkpt lat="-6.55323" lon="106.72373"/>
      <trkpt lat="-6.55323" lon="106.72374"/>
      <trkpt lat="-6.55388" lon="106.72371"/>
      <trkpt lat="-6.55392" lon="106.72371"/>
      <trkpt lat="-6.55398" lon="106.72377"/>
      <trkpt lat="-6.554" lon="106.72379"/>
      <trkpt lat="-6.55438" lon="106.724"/>
      <trkpt lat="-6.55449" lon="106.72406"/>
      <trkpt lat="-6.55493" lon="106.72431"/>
      <trkpt lat="-6.55548" lon="106.72467"/>
      <trkpt lat="-6.55576" lon="106.72484"/>
      <trkpt lat="-6.55593" lon="106.72495"/>
      <trkpt lat="-6.55617" lon="106.72509"/>
      <trkpt lat="-6.55637" lon="106.7252"/>
      <trkpt lat="-6.5564" lon="106.72528"/>
      <trkpt lat="-6.55647" lon="106.72527"/>
      <trkpt lat="-6.55635" lon="106.72499"/>
      <trkpt lat="-6.55628" lon="106.7248"/>
      <trkpt lat="-6.55626" lon="106.72474"/>
      <trkpt lat="-6.55626" lon="106.72473"/>
      <trkpt lat="-6.55628" lon="106.72452"/>
      <trkpt lat="-6.5563" lon="106.72429"/>
      <trkpt lat="-6.55632" lon="106.72421"/>
      <trkpt lat="-6.5564" lon="106.7241"/>
      <trkpt lat="-6.55638" lon="106.7241"/>
      <trkpt lat="-6.5564" lon="106.7241"/>
      <trkpt lat="-6.55669" lon="106.72394"/>
      <trkpt lat="-6.55676" lon="106.72386"/>
      <trkpt lat="-6.55678" lon="106.72378"/>
      <trkpt lat="-6.55676" lon="106.72339"/>
      <trkpt lat="-6.55675" lon="106.72308"/>
      <trkpt lat="-6.55674" lon="106.72253"/>
      <trkpt lat="-6.55673" lon="106.72225"/>
      <trkpt lat="-6.55673" lon="106.72174"/>
      <trkpt lat="-6.55672" lon="106.72166"/>
      <trkpt lat="-6.5567" lon="106.7215"/>
      <trkpt lat="-6.55668" lon="106.72142"/>
      <trkpt lat="-6.55652" lon="106.72096"/>
      <trkpt lat="-6.55629" lon="106.72037"/>
      <trkpt lat="-6.55625" lon="106.72012"/>
      <trkpt lat="-6.55626" lon="106.71999"/>
      <trkpt lat="-6.55628" lon="106.71979"/>
      <trkpt lat="-6.55634" lon="106.71967"/>
      <trkpt lat="-6.55647" lon="106.71952"/>
      <trkpt lat="-6.5566" lon="106.71941"/>
      <trkpt lat="-6.55642" lon="106.71924"/>
      <trkpt lat="-6.55623" lon="106.71896"/>
      <trkpt lat="-6.55614" lon="106.71875"/>
      <trkpt lat="-6.55558" lon="106.7177"/>
      <trkpt lat="-6.55534" lon="106.71758"/>
      <trkpt lat="-6.55511" lon="106.7175"/>
      <trkpt lat="-6.55495" lon="106.71745"/>
      <trkpt lat="-6.55475" lon="106.71733"/>
      <trkpt lat="-6.55429" lon="106.7168"/>
      <trkpt lat="-6.55358" lon="106.71607"/>
      <trkpt lat="-6.55274" lon="106.71511"/>
      <trkpt lat="-6.55231" lon="106.71461"/>
      <trkpt lat="-6.55216" lon="106.71437"/>
      <trkpt lat="-6.55191" lon="106.71384"/>
      <trkpt lat="-6.55174" lon="106.71364"/>
      <trkpt lat="-6.55169" lon="106.71361"/>
      <trkpt lat="-6.55153" lon="106.71359"/>
      <trkpt lat="-6.55092" lon="106.71366"/>
      <trkpt lat="-6.55065" lon="106.71368"/>
      <trkpt lat="-6.5505" lon="106.71375"/>
      <trkpt lat="-6.55042" lon="106.71379"/>
      <trkpt lat="-6.55027" lon="106.714"/>
      <trkpt lat="-6.54995" lon="106.71469"/>
      <trkpt lat="-6.54974" lon="106.71525"/>
      <trkpt lat="-6.54957" lon="106.71537"/>
      <trkpt lat="-6.54914" lon="106.71549"/>
      <trkpt lat="-6.54851" lon="106.71562"/>
      <trkpt lat="-6.54838" lon="106.71563"/>
      <trkpt lat="-6.54805" lon="106.71559"/>
      <trkpt lat="-6.54765" lon="106.71557"/>
      <trkpt lat="-6.5472" lon="106.71551"/>
      <trkpt lat="-6.54628" lon="106.71539"/>
      <trkpt lat="-6.54615" lon="106.71539"/>
      <trkpt lat="-6.54606" lon="106.71539"/>
      <trkpt lat="-6.54545" lon="106.71537"/>
      <trkpt lat="-6.54544" lon="106.71537"/>
      <trkpt lat="-6.54546" lon="106.71596"/>
      <trkpt lat="-6.54547" lon="106.71615"/>
      <trkpt lat="-6.54554" lon="106.71642"/>
      <trkpt lat="-6.54562" lon="106.71665"/>
      <trkpt lat="-6.5457" lon="106.71684"/>
      <trkpt lat="-6.54587" lon="106.71704"/>
      <trkpt lat="-6.54607" lon="106.71723"/>
      <trkpt lat="-6.5464" lon="106.71748"/>
      <trkpt lat="-6.54659" lon="106.71765"/>
      <trkpt lat="-6.54681" lon="106.71787"/>
      <trkpt lat="-6.54696" lon="106.71809"/>
      <trkpt lat="-6.54727" lon="106.71886"/>
      <trkpt lat="-6.54744" lon="106.7192"/>
      <trkpt lat="-6.54768" lon="106.7194"/>
      <trkpt lat="-6.548" lon="106.71942"/>
      <trkpt lat="-6.54832" lon="106.71941"/>
      <trkpt lat="-6.54848" lon="106.7195"/>
      <trkpt lat="-6.54861" lon="106.7197"/>
      <trkpt lat="-6.5487" lon="106.72078"/>
      <trkpt lat="-6.54878" lon="106.72088"/>
      <trkpt lat="-6.54892" lon="106.72094"/>
      <trkpt lat="-6.54909" lon="106.72094"/>
      <trkpt lat="-6.54953" lon="106.72068"/>
      <trkpt lat="-6.54968" lon="106.72065"/>
      <trkpt lat="-6.54984" lon="106.72066"/>
      <trkpt lat="-6.55042" lon="106.72087"/>
      <trkpt lat="-6.55051" lon="106.721"/>
      <trkpt lat="-6.55057" lon="106.72124"/>
      <trkpt lat="-6.55057" lon="106.7217"/>
      <trkpt lat="-6.55051" lon="106.72192"/>
      <trkpt lat="-6.55036" lon="106.72211"/>
      <trkpt lat="-6.54995" lon="106.72242"/>
      <trkpt lat="-6.54985" lon="106.72261"/>
      <trkpt lat="-6.54981" lon="106.72284"/>
      <trkpt lat="-6.54985" lon="106.72317"/>
      <trkpt lat="-6.55013" lon="106.72452"/>
      <trkpt lat="-6.55033" lon="106.72485"/>
      <trkpt lat="-6.55104" lon="106.72552"/>
      <trkpt lat="-6.55133" lon="106.72583"/>
      <trkpt lat="-6.5514" lon="106.72591"/>
      <trkpt lat="-6.55185" lon="106.72643"/>
      <trkpt lat="-6.5522" lon="106.72691"/>
      <trkpt lat="-6.55241" lon="106.72698"/>
      <trkpt lat="-6.55361" lon="106.72752"/>
      <trkpt lat="-6.55369" lon="106.72756"/>
      <trkpt lat="-6.55498" lon="106.72819"/>
      <trkpt lat="-6.55526" lon="106.72828"/>
      <trkpt lat="-6.55533" lon="106.72835"/>
      <trkpt lat="-6.55534" lon="106.72842"/>
      <trkpt lat="-6.55543" lon="106.72895"/>
      <trkpt lat="-6.55544" lon="106.72899"/>
      <trkpt lat="-6.55547" lon="106.72901"/>
      <trkpt lat="-6.55563" lon="106.72906"/>
      <trkpt lat="-6.55571" lon="106.72908"/>
      <trkpt lat="-6.55571" lon="106.7291"/>
      <trkpt lat="-6.55571" lon="106.72916"/>
      <trkpt lat="-6.55569" lon="106.72991"/>
      <trkpt lat="-6.55566" lon="106.73"/>
      <trkpt lat="-6.55565" lon="106.73008"/>
      <trkpt lat="-6.55566" lon="106.73048"/>
      <trkpt lat="-6.55566" lon="106.73065"/>
      <trkpt lat="-6.55566" lon="106.73074"/>
      <trkpt lat="-6.55566" lon="106.73104"/>
      <trkpt lat="-6.55567" lon="106.73118"/>
      <trkpt lat="-6.5557" lon="106.73135"/>
      <trkpt lat="-6.55571" lon="106.73138"/>
      <trkpt lat="-6.55576" lon="106.7315"/>
      <trkpt lat="-6.55583" lon="106.73159"/>
      <trkpt lat="-6.55586" lon="106.73162"/>
      <trkpt lat="-6.55601" lon="106.73172"/>
      <trkpt lat="-6.55619" lon="106.73176"/>
      <trkpt lat="-6.55628" lon="106.73177"/>
      <trkpt lat="-6.55632" lon="106.73177"/>
      <trkpt lat="-6.5566" lon="106.73176"/>
      <trkpt lat="-6.55682" lon="106.73176"/>
      <trkpt lat="-6.55695" lon="106.73176"/>
      <trkpt lat="-6.55713" lon="106.73176"/>
      <trkpt lat="-6.55758" lon="106.73176"/>
      <trkpt lat="-6.55774" lon="106.73169"/>
      <trkpt lat="-6.55795" lon="106.73159"/>
      <trkpt lat="-6.55799" lon="106.73155"/>
      <trkpt lat="-6.55803" lon="106.7315"/>
      <trkpt lat="-6.55809" lon="106.73147"/>
      <trkpt lat="-6.55876" lon="106.73104"/>
      <trkpt lat="-6.55894" lon="106.73095"/>
      <trkpt lat="-6.559" lon="106.73092"/>
      <trkpt lat="-6.55926" lon="106.73078"/>
      <trkpt lat="-6.55939" lon="106.73071"/>
      <trkpt lat="-6.55962" lon="106.73056"/>
      <trkpt lat="-6.55973" lon="106.73049"/>
      <trkpt lat="-6.55992" lon="106.73034"/>
      <trkpt lat="-6.55998" lon="106.73031"/>
      <trkpt lat="-6.56034" lon="106.73012"/>
      <trkpt lat="-6.56055" lon="106.73011"/>
      <trkpt lat="-6.56087" lon="106.7301"/>
      <trkpt lat="-6.56088" lon="106.72973"/>
      <trkpt lat="-6.56085" lon="106.72661"/>
      <trkpt lat="-6.56085" lon="106.7265"/>
      <trkpt lat="-6.56085" lon="106.72636"/>
      <trkpt lat="-6.56084" lon="106.72612"/>
    </trkseg>
  </trk>
</gpx>