<?xml version="1.0" encoding="UTF-8" standalone="yes"?>
<gpx version="1.1" creator="https://onthegomap.com" xmlns="http://www.topografix.com/GPX/1/1">
  <metadata>
    <name>42.4km route</name>
    <link href="https://onthegomap.com">
      <text>On The Go Map</text>
    </link>
    <time>2026-05-28T18:13:47.490Z</time>
    <copyright author="On The Go Map, OpenStreetMap Contributors">
      <year>2026</year>
    </copyright>
  </metadata>
  <trk>
    <name>42.4km route</name>
    <trkseg>
      <trkpt lat="-6.56084" lon="106.72609"/>
      <trkpt lat="-6.56083" lon="106.72584"/>
      <trkpt lat="-6.5608" lon="106.72551"/>
      <trkpt lat="-6.56035" lon="106.72527"/>
      <trkpt lat="-6.56019" lon="106.72519"/>
      <trkpt lat="-6.56018" lon="106.72515"/>
      <trkpt lat="-6.56018" lon="106.72479"/>
      <trkpt lat="-6.56018" lon="106.72472"/>
      <trkpt lat="-6.56017" lon="106.72455"/>
      <trkpt lat="-6.56015" lon="106.72349"/>
      <trkpt lat="-6.56016" lon="106.72333"/>
      <trkpt lat="-6.56016" lon="106.72325"/>
      <trkpt lat="-6.56015" lon="106.72257"/>
      <trkpt lat="-6.56016" lon="106.72195"/>
      <trkpt lat="-6.56006" lon="106.72163"/>
      <trkpt lat="-6.55974" lon="106.72104"/>
      <trkpt lat="-6.55971" lon="106.72099"/>
      <trkpt lat="-6.55926" lon="106.72029"/>
      <trkpt lat="-6.55919" lon="106.7202"/>
      <trkpt lat="-6.55902" lon="106.7201"/>
      <trkpt lat="-6.55882" lon="106.72004"/>
      <trkpt lat="-6.55819" lon="106.71993"/>
      <trkpt lat="-6.55789" lon="106.71944"/>
      <trkpt lat="-6.55778" lon="106.71925"/>
      <trkpt lat="-6.5576" lon="106.71912"/>
      <trkpt lat="-6.5574" lon="106.71904"/>
      <trkpt lat="-6.55714" lon="106.71904"/>
      <trkpt lat="-6.55705" lon="106.71908"/>
      <trkpt lat="-6.5566" lon="106.71941"/>
      <trkpt lat="-6.55647" lon="106.71952"/>
      <trkpt lat="-6.55634" lon="106.71967"/>
      <trkpt lat="-6.55628" lon="106.71979"/>
      <trkpt lat="-6.55626" lon="106.71999"/>
      <trkpt lat="-6.55625" lon="106.72012"/>
      <trkpt lat="-6.55629" lon="106.72037"/>
      <trkpt lat="-6.55652" lon="106.72096"/>
      <trkpt lat="-6.55657" lon="106.72111"/>
      <trkpt lat="-6.55668" lon="106.72142"/>
      <trkpt lat="-6.5567" lon="106.7215"/>
      <trkpt lat="-6.55672" lon="106.72166"/>
      <trkpt lat="-6.55673" lon="106.72174"/>
      <trkpt lat="-6.55673" lon="106.72225"/>
      <trkpt lat="-6.55674" lon="106.72253"/>
      <trkpt lat="-6.55675" lon="106.72308"/>
      <trkpt lat="-6.55676" lon="106.72339"/>
      <trkpt lat="-6.55678" lon="106.72378"/>
      <trkpt lat="-6.55676" lon="106.72386"/>
      <trkpt lat="-6.55669" lon="106.72394"/>
      <trkpt lat="-6.5564" lon="106.7241"/>
      <trkpt lat="-6.55583" lon="106.72407"/>
      <trkpt lat="-6.55582" lon="106.72407"/>
      <trkpt lat="-6.55584" lon="106.72306"/>
      <trkpt lat="-6.55583" lon="106.72306"/>
      <trkpt lat="-6.55384" lon="106.723"/>
      <trkpt lat="-6.55383" lon="106.72292"/>
      <trkpt lat="-6.55377" lon="106.72218"/>
      <trkpt lat="-6.55373" lon="106.72207"/>
      <trkpt lat="-6.55347" lon="106.72169"/>
      <trkpt lat="-6.55379" lon="106.72144"/>
      <trkpt lat="-6.55401" lon="106.72128"/>
      <trkpt lat="-6.55457" lon="106.72084"/>
      <trkpt lat="-6.5546" lon="106.7208"/>
      <trkpt lat="-6.55459" lon="106.72076"/>
      <trkpt lat="-6.55422" lon="106.72019"/>
      <trkpt lat="-6.55417" lon="106.72006"/>
      <trkpt lat="-6.55417" lon="106.72004"/>
      <trkpt lat="-6.55415" lon="106.71989"/>
      <trkpt lat="-6.55409" lon="106.71873"/>
      <trkpt lat="-6.55328" lon="106.71879"/>
      <trkpt lat="-6.55318" lon="106.71879"/>
      <trkpt lat="-6.55236" lon="106.71883"/>
      <trkpt lat="-6.55184" lon="106.71882"/>
      <trkpt lat="-6.55061" lon="106.7189"/>
      <trkpt lat="-6.55042" lon="106.7189"/>
      <trkpt lat="-6.55043" lon="106.71942"/>
      <trkpt lat="-6.55044" lon="106.7197"/>
      <trkpt lat="-6.55048" lon="106.7198"/>
      <trkpt lat="-6.55052" lon="106.71986"/>
      <trkpt lat="-6.5506" lon="106.71987"/>
      <trkpt lat="-6.55086" lon="106.71985"/>
      <trkpt lat="-6.55232" lon="106.71974"/>
      <trkpt lat="-6.55232" lon="106.71975"/>
      <trkpt lat="-6.55234" lon="106.72001"/>
      <trkpt lat="-6.55239" lon="106.72024"/>
      <trkpt lat="-6.55253" lon="106.72065"/>
      <trkpt lat="-6.55265" lon="106.72084"/>
      <trkpt lat="-6.55286" lon="106.72106"/>
      <trkpt lat="-6.55347" lon="106.72169"/>
      <trkpt lat="-6.55287" lon="106.72211"/>
      <trkpt lat="-6.55287" lon="106.72212"/>
      <trkpt lat="-6.55309" lon="106.72253"/>
      <trkpt lat="-6.55318" lon="106.72293"/>
      <trkpt lat="-6.55323" lon="106.72374"/>
      <trkpt lat="-6.5534" lon="106.72373"/>
      <trkpt lat="-6.55392" lon="106.72371"/>
      <trkpt lat="-6.55398" lon="106.72377"/>
      <trkpt lat="-6.55397" lon="106.72378"/>
      <trkpt lat="-6.55398" lon="106.72377"/>
      <trkpt lat="-6.55438" lon="106.724"/>
      <trkpt lat="-6.55449" lon="106.72406"/>
      <trkpt lat="-6.55493" lon="106.72431"/>
      <trkpt lat="-6.55548" lon="106.72467"/>
      <trkpt lat="-6.55576" lon="106.72484"/>
      <trkpt lat="-6.55593" lon="106.72495"/>
      <trkpt lat="-6.55617" lon="106.72509"/>
      <trkpt lat="-6.55637" lon="106.7252"/>
      <trkpt lat="-6.5564" lon="106.72528"/>
      <trkpt lat="-6.55641" lon="106.72529"/>
      <trkpt lat="-6.55647" lon="106.72542"/>
      <trkpt lat="-6.55648" lon="106.72562"/>
      <trkpt lat="-6.55649" lon="106.72568"/>
      <trkpt lat="-6.55644" lon="106.7257"/>
      <trkpt lat="-6.55641" lon="106.72575"/>
      <trkpt lat="-6.55641" lon="106.72581"/>
      <trkpt lat="-6.55644" lon="106.72586"/>
      <trkpt lat="-6.55634" lon="106.72628"/>
      <trkpt lat="-6.55633" lon="106.72634"/>
      <trkpt lat="-6.55633" lon="106.7264"/>
      <trkpt lat="-6.55634" lon="106.72639"/>
      <trkpt lat="-6.55633" lon="106.7264"/>
      <trkpt lat="-6.55614" lon="106.72679"/>
      <trkpt lat="-6.55608" lon="106.72695"/>
      <trkpt lat="-6.55606" lon="106.72718"/>
      <trkpt lat="-6.55603" lon="106.72771"/>
      <trkpt lat="-6.55603" lon="106.72772"/>
      <trkpt lat="-6.55599" lon="106.72783"/>
      <trkpt lat="-6.55581" lon="106.72801"/>
      <trkpt lat="-6.55573" lon="106.72815"/>
      <trkpt lat="-6.55569" lon="106.72831"/>
      <trkpt lat="-6.55571" lon="106.72908"/>
      <trkpt lat="-6.55571" lon="106.72916"/>
      <trkpt lat="-6.55569" lon="106.72982"/>
      <trkpt lat="-6.55569" lon="106.72991"/>
      <trkpt lat="-6.55566" lon="106.73"/>
      <trkpt lat="-6.55565" lon="106.73008"/>
      <trkpt lat="-6.55566" lon="106.73048"/>
      <trkpt lat="-6.55566" lon="106.73065"/>
      <trkpt lat="-6.55566" lon="106.73091"/>
      <trkpt lat="-6.55566" lon="106.73104"/>
      <trkpt lat="-6.55567" lon="106.73118"/>
      <trkpt lat="-6.5557" lon="106.73135"/>
      <trkpt lat="-6.55572" lon="106.7314"/>
      <trkpt lat="-6.55576" lon="106.7315"/>
      <trkpt lat="-6.55583" lon="106.73159"/>
      <trkpt lat="-6.55586" lon="106.73162"/>
      <trkpt lat="-6.55601" lon="106.73172"/>
      <trkpt lat="-6.55615" lon="106.73175"/>
      <trkpt lat="-6.55619" lon="106.73176"/>
      <trkpt lat="-6.55632" lon="106.73177"/>
      <trkpt lat="-6.55659" lon="106.73176"/>
      <trkpt lat="-6.55682" lon="106.73176"/>
      <trkpt lat="-6.55696" lon="106.73176"/>
      <trkpt lat="-6.55713" lon="106.73176"/>
      <trkpt lat="-6.55758" lon="106.73176"/>
      <trkpt lat="-6.55773" lon="106.73169"/>
      <trkpt lat="-6.55795" lon="106.73159"/>
      <trkpt lat="-6.55799" lon="106.73155"/>
      <trkpt lat="-6.55803" lon="106.7315"/>
      <trkpt lat="-6.55809" lon="106.73147"/>
      <trkpt lat="-6.55814" lon="106.73144"/>
      <trkpt lat="-6.55876" lon="106.73104"/>
      <trkpt lat="-6.55894" lon="106.73095"/>
      <trkpt lat="-6.559" lon="106.73092"/>
      <trkpt lat="-6.55926" lon="106.73078"/>
      <trkpt lat="-6.55939" lon="106.73071"/>
      <trkpt lat="-6.55962" lon="106.73056"/>
      <trkpt lat="-6.55973" lon="106.73049"/>
      <trkpt lat="-6.55992" lon="106.73034"/>
      <trkpt lat="-6.55984" lon="106.72904"/>
      <trkpt lat="-6.55969" lon="106.72806"/>
      <trkpt lat="-6.55963" lon="106.72793"/>
      <trkpt lat="-6.55947" lon="106.72776"/>
      <trkpt lat="-6.55931" lon="106.72763"/>
      <trkpt lat="-6.55914" lon="106.72747"/>
      <trkpt lat="-6.55907" lon="106.7273"/>
      <trkpt lat="-6.55904" lon="106.72722"/>
      <trkpt lat="-6.55885" lon="106.72712"/>
      <trkpt lat="-6.55873" lon="106.72705"/>
      <trkpt lat="-6.55875" lon="106.727"/>
      <trkpt lat="-6.55874" lon="106.72697"/>
      <trkpt lat="-6.55823" lon="106.72671"/>
      <trkpt lat="-6.55819" lon="106.72678"/>
      <trkpt lat="-6.55816" lon="106.72684"/>
      <trkpt lat="-6.55814" lon="106.72689"/>
      <trkpt lat="-6.55813" lon="106.72689"/>
      <trkpt lat="-6.55814" lon="106.72689"/>
      <trkpt lat="-6.55814" lon="106.72717"/>
      <trkpt lat="-6.5581" lon="106.72776"/>
      <trkpt lat="-6.55801" lon="106.72795"/>
      <trkpt lat="-6.55792" lon="106.72806"/>
      <trkpt lat="-6.55789" lon="106.72817"/>
      <trkpt lat="-6.55787" lon="106.72831"/>
      <trkpt lat="-6.55788" lon="106.72874"/>
      <trkpt lat="-6.55789" lon="106.72879"/>
      <trkpt lat="-6.5579" lon="106.72919"/>
      <trkpt lat="-6.5579" lon="106.72973"/>
      <trkpt lat="-6.55788" lon="106.7298"/>
      <trkpt lat="-6.55773" lon="106.72995"/>
      <trkpt lat="-6.55771" lon="106.72997"/>
      <trkpt lat="-6.55761" lon="106.72995"/>
      <trkpt lat="-6.5572" lon="106.72998"/>
      <trkpt lat="-6.55719" lon="106.72998"/>
      <trkpt lat="-6.55721" lon="106.72922"/>
      <trkpt lat="-6.55723" lon="106.72919"/>
      <trkpt lat="-6.55727" lon="106.72918"/>
      <trkpt lat="-6.55738" lon="106.72918"/>
      <trkpt lat="-6.55756" lon="106.72918"/>
      <trkpt lat="-6.55781" lon="106.72918"/>
      <trkpt lat="-6.5579" lon="106.72918"/>
      <trkpt lat="-6.55789" lon="106.72879"/>
      <trkpt lat="-6.55788" lon="106.72874"/>
      <trkpt lat="-6.55787" lon="106.72831"/>
      <trkpt lat="-6.55789" lon="106.72817"/>
      <trkpt lat="-6.55792" lon="106.72806"/>
      <trkpt lat="-6.55801" lon="106.72795"/>
      <trkpt lat="-6.5581" lon="106.72776"/>
      <trkpt lat="-6.55814" lon="106.72717"/>
      <trkpt lat="-6.55814" lon="106.72689"/>
      <trkpt lat="-6.55813" lon="106.72689"/>
      <trkpt lat="-6.55794" lon="106.72687"/>
      <trkpt lat="-6.55744" lon="106.7268"/>
      <trkpt lat="-6.55725" lon="106.72672"/>
      <trkpt lat="-6.55714" lon="106.72665"/>
      <trkpt lat="-6.55691" lon="106.72651"/>
      <trkpt lat="-6.5568" lon="106.72641"/>
      <trkpt lat="-6.55677" lon="106.72627"/>
      <trkpt lat="-6.55661" lon="106.72583"/>
      <trkpt lat="-6.5566" lon="106.72584"/>
      <trkpt lat="-6.55661" lon="106.72583"/>
      <trkpt lat="-6.55662" lon="106.72575"/>
      <trkpt lat="-6.55657" lon="106.72569"/>
      <trkpt lat="-6.55654" lon="106.72567"/>
      <trkpt lat="-6.55653" lon="106.72545"/>
      <trkpt lat="-6.55651" lon="106.72539"/>
      <trkpt lat="-6.55652" lon="106.72539"/>
      <trkpt lat="-6.55651" lon="106.72539"/>
      <trkpt lat="-6.55647" lon="106.72527"/>
      <trkpt lat="-6.55628" lon="106.7248"/>
      <trkpt lat="-6.55626" lon="106.72474"/>
      <trkpt lat="-6.55628" lon="106.72452"/>
      <trkpt lat="-6.5563" lon="106.72429"/>
      <trkpt lat="-6.55632" lon="106.72421"/>
      <trkpt lat="-6.5564" lon="106.7241"/>
      <trkpt lat="-6.55669" lon="106.72394"/>
      <trkpt lat="-6.55676" lon="106.72386"/>
      <trkpt lat="-6.55678" lon="106.72378"/>
      <trkpt lat="-6.55676" lon="106.72339"/>
      <trkpt lat="-6.55675" lon="106.72308"/>
      <trkpt lat="-6.55674" lon="106.72253"/>
      <trkpt lat="-6.55673" lon="106.72225"/>
      <trkpt lat="-6.55673" lon="106.72174"/>
      <trkpt lat="-6.55672" lon="106.72166"/>
      <trkpt lat="-6.5567" lon="106.7215"/>
      <trkpt lat="-6.55668" lon="106.72142"/>
      <trkpt lat="-6.55652" lon="106.72096"/>
      <trkpt lat="-6.55629" lon="106.72037"/>
      <trkpt lat="-6.55625" lon="106.72012"/>
      <trkpt lat="-6.55626" lon="106.71999"/>
      <trkpt lat="-6.55628" lon="106.71979"/>
      <trkpt lat="-6.55634" lon="106.71967"/>
      <trkpt lat="-6.55647" lon="106.71952"/>
      <trkpt lat="-6.5566" lon="106.71941"/>
      <trkpt lat="-6.55642" lon="106.71924"/>
      <trkpt lat="-6.55623" lon="106.71896"/>
      <trkpt lat="-6.55614" lon="106.71875"/>
      <trkpt lat="-6.55558" lon="106.7177"/>
      <trkpt lat="-6.55534" lon="106.71758"/>
      <trkpt lat="-6.55511" lon="106.7175"/>
      <trkpt lat="-6.55495" lon="106.71745"/>
      <trkpt lat="-6.55475" lon="106.71733"/>
      <trkpt lat="-6.55429" lon="106.7168"/>
      <trkpt lat="-6.55358" lon="106.71607"/>
      <trkpt lat="-6.55231" lon="106.71461"/>
      <trkpt lat="-6.55216" lon="106.71437"/>
      <trkpt lat="-6.55191" lon="106.71384"/>
      <trkpt lat="-6.55174" lon="106.71364"/>
      <trkpt lat="-6.55169" lon="106.71361"/>
      <trkpt lat="-6.55153" lon="106.71359"/>
      <trkpt lat="-6.55092" lon="106.71366"/>
      <trkpt lat="-6.55065" lon="106.71368"/>
      <trkpt lat="-6.55056" lon="106.71372"/>
      <trkpt lat="-6.5505" lon="106.71375"/>
      <trkpt lat="-6.55042" lon="106.71379"/>
      <trkpt lat="-6.55027" lon="106.714"/>
      <trkpt lat="-6.54995" lon="106.71469"/>
      <trkpt lat="-6.54984" lon="106.71498"/>
      <trkpt lat="-6.54974" lon="106.71525"/>
      <trkpt lat="-6.54957" lon="106.71537"/>
      <trkpt lat="-6.54914" lon="106.71549"/>
      <trkpt lat="-6.54851" lon="106.71562"/>
      <trkpt lat="-6.54838" lon="106.71563"/>
      <trkpt lat="-6.54805" lon="106.71559"/>
      <trkpt lat="-6.54765" lon="106.71557"/>
      <trkpt lat="-6.5472" lon="106.71551"/>
      <trkpt lat="-6.54628" lon="106.71539"/>
      <trkpt lat="-6.54615" lon="106.71539"/>
      <trkpt lat="-6.54606" lon="106.71539"/>
      <trkpt lat="-6.54544" lon="106.71537"/>
      <trkpt lat="-6.54546" lon="106.71596"/>
      <trkpt lat="-6.54547" lon="106.71615"/>
      <trkpt lat="-6.54554" lon="106.71642"/>
      <trkpt lat="-6.54562" lon="106.71665"/>
      <trkpt lat="-6.5457" lon="106.71684"/>
      <trkpt lat="-6.54587" lon="106.71704"/>
      <trkpt lat="-6.54607" lon="106.71723"/>
      <trkpt lat="-6.5464" lon="106.71748"/>
      <trkpt lat="-6.54659" lon="106.71765"/>
      <trkpt lat="-6.54681" lon="106.71787"/>
      <trkpt lat="-6.54696" lon="106.71809"/>
      <trkpt lat="-6.54727" lon="106.71886"/>
      <trkpt lat="-6.54744" lon="106.7192"/>
      <trkpt lat="-6.54768" lon="106.7194"/>
      <trkpt lat="-6.548" lon="106.71942"/>
      <trkpt lat="-6.54832" lon="106.71941"/>
      <trkpt lat="-6.54848" lon="106.7195"/>
      <trkpt lat="-6.54861" lon="106.7197"/>
      <trkpt lat="-6.5487" lon="106.72078"/>
      <trkpt lat="-6.54878" lon="106.72088"/>
      <trkpt lat="-6.54892" lon="106.72094"/>
      <trkpt lat="-6.54909" lon="106.72094"/>
      <trkpt lat="-6.54953" lon="106.72068"/>
      <trkpt lat="-6.54968" lon="106.72065"/>
      <trkpt lat="-6.54984" lon="106.72066"/>
      <trkpt lat="-6.55042" lon="106.72087"/>
      <trkpt lat="-6.55051" lon="106.721"/>
      <trkpt lat="-6.55057" lon="106.72124"/>
      <trkpt lat="-6.55057" lon="106.7217"/>
      <trkpt lat="-6.55051" lon="106.72192"/>
      <trkpt lat="-6.55036" lon="106.72211"/>
      <trkpt lat="-6.54995" lon="106.72242"/>
      <trkpt lat="-6.54985" lon="106.72261"/>
      <trkpt lat="-6.54981" lon="106.72284"/>
      <trkpt lat="-6.54985" lon="106.72317"/>
      <trkpt lat="-6.55013" lon="106.72452"/>
      <trkpt lat="-6.55033" lon="106.72485"/>
      <trkpt lat="-6.55104" lon="106.72552"/>
      <trkpt lat="-6.55111" lon="106.72559"/>
      <trkpt lat="-6.5514" lon="106.72591"/>
      <trkpt lat="-6.55185" lon="106.72643"/>
      <trkpt lat="-6.5522" lon="106.72691"/>
      <trkpt lat="-6.55219" lon="106.72691"/>
      <trkpt lat="-6.55213" lon="106.72691"/>
      <trkpt lat="-6.55205" lon="106.72691"/>
      <trkpt lat="-6.55178" lon="106.72695"/>
      <trkpt lat="-6.55161" lon="106.727"/>
      <trkpt lat="-6.55148" lon="106.72708"/>
      <trkpt lat="-6.55126" lon="106.72737"/>
      <trkpt lat="-6.55117" lon="106.72751"/>
      <trkpt lat="-6.55105" lon="106.72771"/>
      <trkpt lat="-6.55103" lon="106.72777"/>
      <trkpt lat="-6.55096" lon="106.72837"/>
      <trkpt lat="-6.5509" lon="106.72875"/>
      <trkpt lat="-6.55088" lon="106.72881"/>
      <trkpt lat="-6.55082" lon="106.72888"/>
      <trkpt lat="-6.55073" lon="106.72909"/>
      <trkpt lat="-6.55072" lon="106.72923"/>
      <trkpt lat="-6.55076" lon="106.72997"/>
      <trkpt lat="-6.55081" lon="106.73054"/>
      <trkpt lat="-6.55084" lon="106.73085"/>
      <trkpt lat="-6.5509" lon="106.73133"/>
      <trkpt lat="-6.55104" lon="106.73178"/>
      <trkpt lat="-6.55106" lon="106.73194"/>
      <trkpt lat="-6.55105" lon="106.73207"/>
      <trkpt lat="-6.55095" lon="106.73232"/>
      <trkpt lat="-6.55095" lon="106.73238"/>
      <trkpt lat="-6.55094" lon="106.73258"/>
      <trkpt lat="-6.55094" lon="106.73262"/>
      <trkpt lat="-6.55095" lon="106.73267"/>
      <trkpt lat="-6.55105" lon="106.73302"/>
      <trkpt lat="-6.55109" lon="106.7331"/>
      <trkpt lat="-6.55117" lon="106.73312"/>
      <trkpt lat="-6.55123" lon="106.73316"/>
      <trkpt lat="-6.55128" lon="106.73321"/>
      <trkpt lat="-6.55133" lon="106.73331"/>
      <trkpt lat="-6.5514" lon="106.73349"/>
      <trkpt lat="-6.55146" lon="106.7337"/>
      <trkpt lat="-6.55163" lon="106.73426"/>
      <trkpt lat="-6.55161" lon="106.73483"/>
      <trkpt lat="-6.55151" lon="106.73613"/>
      <trkpt lat="-6.55148" lon="106.73653"/>
      <trkpt lat="-6.55146" lon="106.73708"/>
      <trkpt lat="-6.55145" lon="106.73747"/>
      <trkpt lat="-6.55144" lon="106.73756"/>
      <trkpt lat="-6.55139" lon="106.73869"/>
      <trkpt lat="-6.55136" lon="106.73968"/>
      <trkpt lat="-6.55137" lon="106.73982"/>
      <trkpt lat="-6.55152" lon="106.74054"/>
      <trkpt lat="-6.55157" lon="106.74081"/>
      <trkpt lat="-6.55159" lon="106.74093"/>
      <trkpt lat="-6.55178" lon="106.74177"/>
      <trkpt lat="-6.55191" lon="106.74242"/>
      <trkpt lat="-6.55198" lon="106.7428"/>
      <trkpt lat="-6.55199" lon="106.74285"/>
      <trkpt lat="-6.55201" lon="106.74309"/>
      <trkpt lat="-6.55203" lon="106.7435"/>
      <trkpt lat="-6.55206" lon="106.74407"/>
      <trkpt lat="-6.55205" lon="106.74417"/>
      <trkpt lat="-6.55206" lon="106.74427"/>
      <trkpt lat="-6.55207" lon="106.74491"/>
      <trkpt lat="-6.55207" lon="106.74544"/>
      <trkpt lat="-6.55175" lon="106.74561"/>
      <trkpt lat="-6.55169" lon="106.74564"/>
      <trkpt lat="-6.55154" lon="106.74569"/>
      <trkpt lat="-6.55052" lon="106.74583"/>
      <trkpt lat="-6.55048" lon="106.74584"/>
      <trkpt lat="-6.5504" lon="106.74592"/>
      <trkpt lat="-6.55032" lon="106.74606"/>
      <trkpt lat="-6.55028" lon="106.74621"/>
      <trkpt lat="-6.55026" lon="106.74635"/>
      <trkpt lat="-6.54986" lon="106.74647"/>
      <trkpt lat="-6.54962" lon="106.74651"/>
      <trkpt lat="-6.54941" lon="106.74654"/>
      <trkpt lat="-6.54901" lon="106.74665"/>
      <trkpt lat="-6.5489" lon="106.74666"/>
      <trkpt lat="-6.54872" lon="106.74662"/>
      <trkpt lat="-6.54841" lon="106.7466"/>
      <trkpt lat="-6.54807" lon="106.74662"/>
      <trkpt lat="-6.54796" lon="106.74657"/>
      <trkpt lat="-6.54793" lon="106.74656"/>
      <trkpt lat="-6.54784" lon="106.74647"/>
      <trkpt lat="-6.54767" lon="106.74635"/>
      <trkpt lat="-6.54756" lon="106.74628"/>
      <trkpt lat="-6.54747" lon="106.74624"/>
      <trkpt lat="-6.54714" lon="106.7461"/>
      <trkpt lat="-6.547" lon="106.74602"/>
      <trkpt lat="-6.54656" lon="106.74554"/>
      <trkpt lat="-6.54642" lon="106.74541"/>
      <trkpt lat="-6.54613" lon="106.74502"/>
      <trkpt lat="-6.54604" lon="106.74481"/>
      <trkpt lat="-6.5459" lon="106.7444"/>
      <trkpt lat="-6.54575" lon="106.74408"/>
      <trkpt lat="-6.54567" lon="106.74388"/>
      <trkpt lat="-6.54559" lon="106.74366"/>
      <trkpt lat="-6.54553" lon="106.74316"/>
      <trkpt lat="-6.54552" lon="106.74312"/>
      <trkpt lat="-6.54551" lon="106.7431"/>
      <trkpt lat="-6.54532" lon="106.74223"/>
      <trkpt lat="-6.54475" lon="106.73971"/>
      <trkpt lat="-6.54468" lon="106.73923"/>
      <trkpt lat="-6.54466" lon="106.73894"/>
      <trkpt lat="-6.54466" lon="106.73829"/>
      <trkpt lat="-6.54453" lon="106.73775"/>
      <trkpt lat="-6.54449" lon="106.7376"/>
      <trkpt lat="-6.54445" lon="106.73741"/>
      <trkpt lat="-6.54441" lon="106.73727"/>
      <trkpt lat="-6.54428" lon="106.73671"/>
      <trkpt lat="-6.54426" lon="106.73658"/>
      <trkpt lat="-6.54416" lon="106.73606"/>
      <trkpt lat="-6.54412" lon="106.73588"/>
      <trkpt lat="-6.54411" lon="106.73583"/>
      <trkpt lat="-6.54398" lon="106.73522"/>
      <trkpt lat="-6.54389" lon="106.73489"/>
      <trkpt lat="-6.54382" lon="106.73457"/>
      <trkpt lat="-6.54381" lon="106.73441"/>
      <trkpt lat="-6.54379" lon="106.73422"/>
      <trkpt lat="-6.54379" lon="106.73414"/>
      <trkpt lat="-6.54366" lon="106.73203"/>
      <trkpt lat="-6.54366" lon="106.73195"/>
      <trkpt lat="-6.54361" lon="106.7306"/>
      <trkpt lat="-6.54358" lon="106.7296"/>
      <trkpt lat="-6.54353" lon="106.7286"/>
      <trkpt lat="-6.5435" lon="106.72805"/>
      <trkpt lat="-6.54349" lon="106.7276"/>
      <trkpt lat="-6.54349" lon="106.72736"/>
      <trkpt lat="-6.54343" lon="106.72731"/>
      <trkpt lat="-6.5433" lon="106.72728"/>
      <trkpt lat="-6.54328" lon="106.72726"/>
      <trkpt lat="-6.54327" lon="106.72723"/>
      <trkpt lat="-6.5433" lon="106.72683"/>
      <trkpt lat="-6.54332" lon="106.72661"/>
      <trkpt lat="-6.54283" lon="106.72655"/>
      <trkpt lat="-6.54253" lon="106.72653"/>
      <trkpt lat="-6.54224" lon="106.72651"/>
      <trkpt lat="-6.54218" lon="106.72649"/>
      <trkpt lat="-6.54216" lon="106.72643"/>
      <trkpt lat="-6.54215" lon="106.72619"/>
      <trkpt lat="-6.54211" lon="106.72607"/>
      <trkpt lat="-6.54205" lon="106.72603"/>
      <trkpt lat="-6.54189" lon="106.726"/>
      <trkpt lat="-6.54175" lon="106.72597"/>
      <trkpt lat="-6.54168" lon="106.72592"/>
      <trkpt lat="-6.54165" lon="106.72568"/>
      <trkpt lat="-6.5416" lon="106.72552"/>
      <trkpt lat="-6.5416" lon="106.72535"/>
      <trkpt lat="-6.54164" lon="106.72524"/>
      <trkpt lat="-6.54172" lon="106.72512"/>
      <trkpt lat="-6.54174" lon="106.72506"/>
      <trkpt lat="-6.54177" lon="106.72491"/>
      <trkpt lat="-6.54175" lon="106.72478"/>
      <trkpt lat="-6.54175" lon="106.72477"/>
      <trkpt lat="-6.54257" lon="106.72495"/>
      <trkpt lat="-6.54338" lon="106.72486"/>
      <trkpt lat="-6.54338" lon="106.72478"/>
      <trkpt lat="-6.54376" lon="106.72473"/>
      <trkpt lat="-6.54396" lon="106.72466"/>
      <trkpt lat="-6.54434" lon="106.72464"/>
      <trkpt lat="-6.54499" lon="106.72465"/>
      <trkpt lat="-6.54499" lon="106.72467"/>
      <trkpt lat="-6.54499" lon="106.72465"/>
      <trkpt lat="-6.54499" lon="106.72445"/>
      <trkpt lat="-6.54498" lon="106.72424"/>
      <trkpt lat="-6.54492" lon="106.72409"/>
      <trkpt lat="-6.54484" lon="106.7238"/>
      <trkpt lat="-6.54472" lon="106.72364"/>
      <trkpt lat="-6.54467" lon="106.72352"/>
      <trkpt lat="-6.54463" lon="106.72321"/>
      <trkpt lat="-6.54464" lon="106.72316"/>
      <trkpt lat="-6.54481" lon="106.7229"/>
      <trkpt lat="-6.54483" lon="106.72283"/>
      <trkpt lat="-6.54487" lon="106.72258"/>
      <trkpt lat="-6.5449" lon="106.72223"/>
      <trkpt lat="-6.54493" lon="106.72224"/>
      <trkpt lat="-6.54575" lon="106.72234"/>
      <trkpt lat="-6.54583" lon="106.72209"/>
      <trkpt lat="-6.54644" lon="106.72224"/>
      <trkpt lat="-6.54647" lon="106.72226"/>
      <trkpt lat="-6.54649" lon="106.72231"/>
      <trkpt lat="-6.54649" lon="106.72246"/>
      <trkpt lat="-6.54652" lon="106.72256"/>
      <trkpt lat="-6.5466" lon="106.72274"/>
      <trkpt lat="-6.54667" lon="106.7228"/>
      <trkpt lat="-6.54669" lon="106.72284"/>
      <trkpt lat="-6.54677" lon="106.72316"/>
      <trkpt lat="-6.54685" lon="106.72334"/>
      <trkpt lat="-6.54686" lon="106.72333"/>
      <trkpt lat="-6.54713" lon="106.72326"/>
      <trkpt lat="-6.54726" lon="106.72326"/>
      <trkpt lat="-6.54753" lon="106.72331"/>
      <trkpt lat="-6.54834" lon="106.72327"/>
      <trkpt lat="-6.54839" lon="106.72328"/>
      <trkpt lat="-6.54842" lon="106.7233"/>
      <trkpt lat="-6.54845" lon="106.72334"/>
      <trkpt lat="-6.54851" lon="106.72364"/>
      <trkpt lat="-6.54869" lon="106.72429"/>
      <trkpt lat="-6.54876" lon="106.72455"/>
      <trkpt lat="-6.54881" lon="106.7249"/>
      <trkpt lat="-6.54904" lon="106.72549"/>
      <trkpt lat="-6.54913" lon="106.72583"/>
      <trkpt lat="-6.5492" lon="106.72601"/>
      <trkpt lat="-6.54944" lon="106.72651"/>
      <trkpt lat="-6.54962" lon="106.72693"/>
      <trkpt lat="-6.54968" lon="106.72723"/>
      <trkpt lat="-6.54969" lon="106.72726"/>
      <trkpt lat="-6.5498" lon="106.72731"/>
      <trkpt lat="-6.54982" lon="106.72738"/>
      <trkpt lat="-6.54987" lon="106.72762"/>
      <trkpt lat="-6.54988" lon="106.72786"/>
      <trkpt lat="-6.54989" lon="106.72793"/>
      <trkpt lat="-6.54985" lon="106.72804"/>
      <trkpt lat="-6.54939" lon="106.72882"/>
      <trkpt lat="-6.54912" lon="106.7293"/>
      <trkpt lat="-6.54887" lon="106.72979"/>
      <trkpt lat="-6.54888" lon="106.72989"/>
      <trkpt lat="-6.54902" lon="106.73016"/>
      <trkpt lat="-6.5491" lon="106.73037"/>
      <trkpt lat="-6.54987" lon="106.73201"/>
      <trkpt lat="-6.54989" lon="106.73201"/>
      <trkpt lat="-6.55101" lon="106.73179"/>
      <trkpt lat="-6.55104" lon="106.73178"/>
      <trkpt lat="-6.55106" lon="106.73194"/>
      <trkpt lat="-6.55105" lon="106.73207"/>
      <trkpt lat="-6.55095" lon="106.73232"/>
      <trkpt lat="-6.55095" lon="106.73238"/>
      <trkpt lat="-6.55094" lon="106.73258"/>
      <trkpt lat="-6.55095" lon="106.73267"/>
      <trkpt lat="-6.55105" lon="106.73302"/>
      <trkpt lat="-6.55109" lon="106.7331"/>
      <trkpt lat="-6.55117" lon="106.73312"/>
      <trkpt lat="-6.55123" lon="106.73316"/>
      <trkpt lat="-6.55128" lon="106.73321"/>
      <trkpt lat="-6.55133" lon="106.73331"/>
      <trkpt lat="-6.5514" lon="106.73349"/>
      <trkpt lat="-6.55146" lon="106.7337"/>
      <trkpt lat="-6.55163" lon="106.73426"/>
      <trkpt lat="-6.55161" lon="106.73483"/>
      <trkpt lat="-6.55151" lon="106.73613"/>
      <trkpt lat="-6.55148" lon="106.73653"/>
      <trkpt lat="-6.55146" lon="106.73708"/>
      <trkpt lat="-6.55145" lon="106.73747"/>
      <trkpt lat="-6.55144" lon="106.73756"/>
      <trkpt lat="-6.55139" lon="106.73869"/>
      <trkpt lat="-6.55136" lon="106.73968"/>
      <trkpt lat="-6.55137" lon="106.73982"/>
      <trkpt lat="-6.55157" lon="106.74081"/>
      <trkpt lat="-6.55159" lon="106.74093"/>
      <trkpt lat="-6.55178" lon="106.74177"/>
      <trkpt lat="-6.55191" lon="106.74242"/>
      <trkpt lat="-6.55198" lon="106.7428"/>
      <trkpt lat="-6.55199" lon="106.74285"/>
      <trkpt lat="-6.55201" lon="106.74309"/>
      <trkpt lat="-6.55203" lon="106.7435"/>
      <trkpt lat="-6.55206" lon="106.74407"/>
      <trkpt lat="-6.55205" lon="106.74417"/>
      <trkpt lat="-6.55206" lon="106.74427"/>
      <trkpt lat="-6.55207" lon="106.74491"/>
      <trkpt lat="-6.55207" lon="106.74544"/>
      <trkpt lat="-6.55175" lon="106.74561"/>
      <trkpt lat="-6.55169" lon="106.74564"/>
      <trkpt lat="-6.55154" lon="106.74569"/>
      <trkpt lat="-6.55052" lon="106.74583"/>
      <trkpt lat="-6.55048" lon="106.74584"/>
      <trkpt lat="-6.5504" lon="106.74592"/>
      <trkpt lat="-6.55032" lon="106.74606"/>
      <trkpt lat="-6.55028" lon="106.74621"/>
      <trkpt lat="-6.55026" lon="106.74635"/>
      <trkpt lat="-6.54986" lon="106.74647"/>
      <trkpt lat="-6.54962" lon="106.74651"/>
      <trkpt lat="-6.54941" lon="106.74654"/>
      <trkpt lat="-6.54901" lon="106.74665"/>
      <trkpt lat="-6.5489" lon="106.74666"/>
      <trkpt lat="-6.54872" lon="106.74662"/>
      <trkpt lat="-6.54841" lon="106.7466"/>
      <trkpt lat="-6.54807" lon="106.74662"/>
      <trkpt lat="-6.54796" lon="106.74657"/>
      <trkpt lat="-6.54793" lon="106.74656"/>
      <trkpt lat="-6.54784" lon="106.74647"/>
      <trkpt lat="-6.54767" lon="106.74635"/>
      <trkpt lat="-6.54756" lon="106.74628"/>
      <trkpt lat="-6.54747" lon="106.74624"/>
      <trkpt lat="-6.54714" lon="106.7461"/>
      <trkpt lat="-6.547" lon="106.74602"/>
      <trkpt lat="-6.54656" lon="106.74554"/>
      <trkpt lat="-6.54642" lon="106.74541"/>
      <trkpt lat="-6.54613" lon="106.74502"/>
      <trkpt lat="-6.54604" lon="106.74481"/>
      <trkpt lat="-6.5459" lon="106.7444"/>
      <trkpt lat="-6.54575" lon="106.74408"/>
      <trkpt lat="-6.54567" lon="106.74388"/>
      <trkpt lat="-6.54559" lon="106.74366"/>
      <trkpt lat="-6.54553" lon="106.74318"/>
      <trkpt lat="-6.54553" lon="106.74316"/>
      <trkpt lat="-6.54551" lon="106.7431"/>
      <trkpt lat="-6.54532" lon="106.74223"/>
      <trkpt lat="-6.54475" lon="106.73971"/>
      <trkpt lat="-6.54468" lon="106.73923"/>
      <trkpt lat="-6.54466" lon="106.73894"/>
      <trkpt lat="-6.54466" lon="106.73829"/>
      <trkpt lat="-6.54453" lon="106.73775"/>
      <trkpt lat="-6.54449" lon="106.7376"/>
      <trkpt lat="-6.54445" lon="106.73741"/>
      <trkpt lat="-6.54441" lon="106.73727"/>
      <trkpt lat="-6.54428" lon="106.73671"/>
      <trkpt lat="-6.54426" lon="106.73658"/>
      <trkpt lat="-6.54416" lon="106.73606"/>
      <trkpt lat="-6.54412" lon="106.73588"/>
      <trkpt lat="-6.54411" lon="106.73583"/>
      <trkpt lat="-6.54398" lon="106.73522"/>
      <trkpt lat="-6.54389" lon="106.73489"/>
      <trkpt lat="-6.54382" lon="106.73457"/>
      <trkpt lat="-6.54381" lon="106.73441"/>
      <trkpt lat="-6.54379" lon="106.73422"/>
      <trkpt lat="-6.54379" lon="106.73414"/>
      <trkpt lat="-6.54366" lon="106.73203"/>
      <trkpt lat="-6.54366" lon="106.73195"/>
      <trkpt lat="-6.54361" lon="106.7306"/>
      <trkpt lat="-6.54358" lon="106.7296"/>
      <trkpt lat="-6.54353" lon="106.7286"/>
      <trkpt lat="-6.5435" lon="106.72805"/>
      <trkpt lat="-6.54349" lon="106.7276"/>
      <trkpt lat="-6.54349" lon="106.72736"/>
      <trkpt lat="-6.54343" lon="106.72731"/>
      <trkpt lat="-6.5433" lon="106.72728"/>
      <trkpt lat="-6.54328" lon="106.72726"/>
      <trkpt lat="-6.54327" lon="106.72723"/>
      <trkpt lat="-6.5433" lon="106.72683"/>
      <trkpt lat="-6.54332" lon="106.72661"/>
      <trkpt lat="-6.54283" lon="106.72655"/>
      <trkpt lat="-6.54253" lon="106.72653"/>
      <trkpt lat="-6.54224" lon="106.72651"/>
      <trkpt lat="-6.54218" lon="106.72649"/>
      <trkpt lat="-6.54216" lon="106.72643"/>
      <trkpt lat="-6.54215" lon="106.72619"/>
      <trkpt lat="-6.54211" lon="106.72607"/>
      <trkpt lat="-6.54205" lon="106.72603"/>
      <trkpt lat="-6.54189" lon="106.726"/>
      <trkpt lat="-6.54175" lon="106.72597"/>
      <trkpt lat="-6.54168" lon="106.72592"/>
      <trkpt lat="-6.54165" lon="106.72568"/>
      <trkpt lat="-6.5416" lon="106.72552"/>
      <trkpt lat="-6.5416" lon="106.72535"/>
      <trkpt lat="-6.54164" lon="106.72524"/>
      <trkpt lat="-6.54172" lon="106.72512"/>
      <trkpt lat="-6.54174" lon="106.72506"/>
      <trkpt lat="-6.54177" lon="106.72491"/>
      <trkpt lat="-6.54175" lon="106.72481"/>
      <trkpt lat="-6.54175" lon="106.72477"/>
      <trkpt lat="-6.54257" lon="106.72495"/>
      <trkpt lat="-6.54338" lon="106.72486"/>
      <trkpt lat="-6.54338" lon="106.72478"/>
      <trkpt lat="-6.54376" lon="106.72473"/>
      <trkpt lat="-6.54396" lon="106.72466"/>
      <trkpt lat="-6.54434" lon="106.72464"/>
      <trkpt lat="-6.54485" lon="106.72464"/>
      <trkpt lat="-6.54499" lon="106.72465"/>
      <trkpt lat="-6.54499" lon="106.72445"/>
      <trkpt lat="-6.54498" lon="106.72424"/>
      <trkpt lat="-6.54492" lon="106.72409"/>
      <trkpt lat="-6.54484" lon="106.7238"/>
      <trkpt lat="-6.54472" lon="106.72364"/>
      <trkpt lat="-6.54467" lon="106.72352"/>
      <trkpt lat="-6.54463" lon="106.72321"/>
      <trkpt lat="-6.54464" lon="106.72316"/>
      <trkpt lat="-6.54481" lon="106.7229"/>
      <trkpt lat="-6.54483" lon="106.72283"/>
      <trkpt lat="-6.54487" lon="106.72258"/>
      <trkpt lat="-6.5449" lon="106.72223"/>
      <trkpt lat="-6.54575" lon="106.72234"/>
      <trkpt lat="-6.54583" lon="106.72209"/>
      <trkpt lat="-6.54644" lon="106.72224"/>
      <trkpt lat="-6.54647" lon="106.72226"/>
      <trkpt lat="-6.54649" lon="106.72231"/>
      <trkpt lat="-6.54649" lon="106.72246"/>
      <trkpt lat="-6.54652" lon="106.72256"/>
      <trkpt lat="-6.5466" lon="106.72274"/>
      <trkpt lat="-6.54667" lon="106.7228"/>
      <trkpt lat="-6.54669" lon="106.72284"/>
      <trkpt lat="-6.54677" lon="106.72316"/>
      <trkpt lat="-6.54685" lon="106.72334"/>
      <trkpt lat="-6.547" lon="106.72329"/>
      <trkpt lat="-6.54713" lon="106.72326"/>
      <trkpt lat="-6.54726" lon="106.72326"/>
      <trkpt lat="-6.54753" lon="106.72331"/>
      <trkpt lat="-6.54834" lon="106.72327"/>
      <trkpt lat="-6.54839" lon="106.72328"/>
      <trkpt lat="-6.54842" lon="106.7233"/>
      <trkpt lat="-6.54845" lon="106.72334"/>
      <trkpt lat="-6.54851" lon="106.72364"/>
      <trkpt lat="-6.54869" lon="106.72429"/>
      <trkpt lat="-6.54876" lon="106.72455"/>
      <trkpt lat="-6.54881" lon="106.7249"/>
      <trkpt lat="-6.54904" lon="106.72549"/>
      <trkpt lat="-6.54913" lon="106.72583"/>
      <trkpt lat="-6.5492" lon="106.72601"/>
      <trkpt lat="-6.54944" lon="106.72651"/>
      <trkpt lat="-6.54962" lon="106.72693"/>
      <trkpt lat="-6.54969" lon="106.72726"/>
      <trkpt lat="-6.5498" lon="106.72731"/>
      <trkpt lat="-6.54982" lon="106.72738"/>
      <trkpt lat="-6.54987" lon="106.72762"/>
      <trkpt lat="-6.54988" lon="106.72786"/>
      <trkpt lat="-6.54989" lon="106.72793"/>
      <trkpt lat="-6.54985" lon="106.72804"/>
      <trkpt lat="-6.54939" lon="106.72882"/>
      <trkpt lat="-6.54912" lon="106.7293"/>
      <trkpt lat="-6.54887" lon="106.72979"/>
      <trkpt lat="-6.54888" lon="106.72989"/>
      <trkpt lat="-6.54902" lon="106.73016"/>
      <trkpt lat="-6.5491" lon="106.73037"/>
      <trkpt lat="-6.54987" lon="106.73201"/>
      <trkpt lat="-6.54989" lon="106.73201"/>
      <trkpt lat="-6.55104" lon="106.73178"/>
      <trkpt lat="-6.55102" lon="106.73172"/>
      <trkpt lat="-6.5509" lon="106.73133"/>
      <trkpt lat="-6.55084" lon="106.73085"/>
      <trkpt lat="-6.55081" lon="106.73054"/>
      <trkpt lat="-6.55076" lon="106.72997"/>
      <trkpt lat="-6.55072" lon="106.72923"/>
      <trkpt lat="-6.55073" lon="106.72909"/>
      <trkpt lat="-6.55082" lon="106.72888"/>
      <trkpt lat="-6.55088" lon="106.72881"/>
      <trkpt lat="-6.5509" lon="106.72875"/>
      <trkpt lat="-6.55096" lon="106.72837"/>
      <trkpt lat="-6.55103" lon="106.72777"/>
      <trkpt lat="-6.55105" lon="106.72771"/>
      <trkpt lat="-6.55117" lon="106.72751"/>
      <trkpt lat="-6.55126" lon="106.72737"/>
      <trkpt lat="-6.55148" lon="106.72708"/>
      <trkpt lat="-6.55161" lon="106.727"/>
      <trkpt lat="-6.55178" lon="106.72695"/>
      <trkpt lat="-6.55205" lon="106.72691"/>
      <trkpt lat="-6.55213" lon="106.72691"/>
      <trkpt lat="-6.5522" lon="106.72691"/>
      <trkpt lat="-6.55229" lon="106.72694"/>
      <trkpt lat="-6.55241" lon="106.72698"/>
      <trkpt lat="-6.55361" lon="106.72752"/>
      <trkpt lat="-6.55369" lon="106.72756"/>
      <trkpt lat="-6.55498" lon="106.72819"/>
      <trkpt lat="-6.55526" lon="106.72828"/>
      <trkpt lat="-6.55533" lon="106.72835"/>
      <trkpt lat="-6.55534" lon="106.72842"/>
      <trkpt lat="-6.55543" lon="106.72895"/>
      <trkpt lat="-6.55544" lon="106.72899"/>
      <trkpt lat="-6.55547" lon="106.72901"/>
      <trkpt lat="-6.55563" lon="106.72906"/>
      <trkpt lat="-6.55571" lon="106.72908"/>
      <trkpt lat="-6.55571" lon="106.7291"/>
      <trkpt lat="-6.55571" lon="106.72916"/>
      <trkpt lat="-6.55569" lon="106.72983"/>
      <trkpt lat="-6.55569" lon="106.72991"/>
      <trkpt lat="-6.55566" lon="106.73"/>
      <trkpt lat="-6.55565" lon="106.73008"/>
      <trkpt lat="-6.55566" lon="106.73048"/>
      <trkpt lat="-6.55566" lon="106.7306"/>
      <trkpt lat="-6.55566" lon="106.73065"/>
      <trkpt lat="-6.55566" lon="106.73104"/>
      <trkpt lat="-6.55567" lon="106.73118"/>
      <trkpt lat="-6.55567" lon="106.73119"/>
      <trkpt lat="-6.5557" lon="106.73135"/>
      <trkpt lat="-6.55576" lon="106.7315"/>
      <trkpt lat="-6.55583" lon="106.73159"/>
      <trkpt lat="-6.55586" lon="106.73162"/>
      <trkpt lat="-6.5559" lon="106.73165"/>
      <trkpt lat="-6.55601" lon="106.73172"/>
      <trkpt lat="-6.55619" lon="106.73176"/>
      <trkpt lat="-6.5563" lon="106.73177"/>
      <trkpt lat="-6.55632" lon="106.73177"/>
      <trkpt lat="-6.55669" lon="106.73176"/>
      <trkpt lat="-6.55682" lon="106.73176"/>
      <trkpt lat="-6.55713" lon="106.73176"/>
      <trkpt lat="-6.55735" lon="106.73176"/>
      <trkpt lat="-6.55758" lon="106.73176"/>
      <trkpt lat="-6.55767" lon="106.73172"/>
      <trkpt lat="-6.55795" lon="106.73159"/>
      <trkpt lat="-6.55799" lon="106.73155"/>
      <trkpt lat="-6.55803" lon="106.7315"/>
      <trkpt lat="-6.55809" lon="106.73147"/>
      <trkpt lat="-6.55876" lon="106.73104"/>
      <trkpt lat="-6.55894" lon="106.73095"/>
      <trkpt lat="-6.559" lon="106.73092"/>
      <trkpt lat="-6.55926" lon="106.73078"/>
      <trkpt lat="-6.55939" lon="106.73071"/>
      <trkpt lat="-6.55962" lon="106.73056"/>
      <trkpt lat="-6.55973" lon="106.73049"/>
      <trkpt lat="-6.55992" lon="106.73034"/>
      <trkpt lat="-6.55984" lon="106.72904"/>
      <trkpt lat="-6.55969" lon="106.72806"/>
      <trkpt lat="-6.55963" lon="106.72793"/>
      <trkpt lat="-6.55947" lon="106.72776"/>
      <trkpt lat="-6.55931" lon="106.72763"/>
      <trkpt lat="-6.55914" lon="106.72747"/>
      <trkpt lat="-6.55907" lon="106.7273"/>
      <trkpt lat="-6.55904" lon="106.72722"/>
      <trkpt lat="-6.55885" lon="106.72712"/>
      <trkpt lat="-6.55873" lon="106.72705"/>
      <trkpt lat="-6.55875" lon="106.727"/>
      <trkpt lat="-6.55874" lon="106.72697"/>
      <trkpt lat="-6.55823" lon="106.72671"/>
      <trkpt lat="-6.55819" lon="106.72678"/>
      <trkpt lat="-6.55816" lon="106.72684"/>
      <trkpt lat="-6.55814" lon="106.72689"/>
      <trkpt lat="-6.55814" lon="106.72717"/>
      <trkpt lat="-6.5581" lon="106.72776"/>
      <trkpt lat="-6.55801" lon="106.72795"/>
      <trkpt lat="-6.55792" lon="106.72806"/>
      <trkpt lat="-6.55789" lon="106.72817"/>
      <trkpt lat="-6.55787" lon="106.72831"/>
      <trkpt lat="-6.55788" lon="106.72874"/>
      <trkpt lat="-6.55789" lon="106.72879"/>
      <trkpt lat="-6.5579" lon="106.72916"/>
      <trkpt lat="-6.5579" lon="106.72919"/>
      <trkpt lat="-6.5579" lon="106.72973"/>
      <trkpt lat="-6.55788" lon="106.7298"/>
      <trkpt lat="-6.55771" lon="106.72997"/>
      <trkpt lat="-6.55761" lon="106.72995"/>
      <trkpt lat="-6.55721" lon="106.72998"/>
      <trkpt lat="-6.55719" lon="106.72998"/>
      <trkpt lat="-6.55721" lon="106.72922"/>
      <trkpt lat="-6.55723" lon="106.72919"/>
      <trkpt lat="-6.55724" lon="106.72918"/>
      <trkpt lat="-6.55727" lon="106.72918"/>
      <trkpt lat="-6.55738" lon="106.72918"/>
      <trkpt lat="-6.55756" lon="106.72918"/>
      <trkpt lat="-6.5579" lon="106.72919"/>
      <trkpt lat="-6.5579" lon="106.72917"/>
      <trkpt lat="-6.55789" lon="106.72879"/>
      <trkpt lat="-6.55788" lon="106.72874"/>
      <trkpt lat="-6.55787" lon="106.72831"/>
      <trkpt lat="-6.55789" lon="106.72817"/>
      <trkpt lat="-6.55792" lon="106.72806"/>
      <trkpt lat="-6.55801" lon="106.72795"/>
      <trkpt lat="-6.5581" lon="106.72776"/>
      <trkpt lat="-6.55814" lon="106.72717"/>
      <trkpt lat="-6.55814" lon="106.72689"/>
      <trkpt lat="-6.55813" lon="106.72689"/>
      <trkpt lat="-6.55794" lon="106.72687"/>
      <trkpt lat="-6.55744" lon="106.7268"/>
      <trkpt lat="-6.55725" lon="106.72672"/>
      <trkpt lat="-6.55714" lon="106.72665"/>
      <trkpt lat="-6.55691" lon="106.72651"/>
      <trkpt lat="-6.5568" lon="106.72641"/>
      <trkpt lat="-6.55677" lon="106.72627"/>
      <trkpt lat="-6.55661" lon="106.72583"/>
      <trkpt lat="-6.55662" lon="106.72575"/>
      <trkpt lat="-6.55657" lon="106.72569"/>
      <trkpt lat="-6.55654" lon="106.72567"/>
      <trkpt lat="-6.55653" lon="106.72545"/>
      <trkpt lat="-6.55651" lon="106.72539"/>
      <trkpt lat="-6.55647" lon="106.72527"/>
      <trkpt lat="-6.55628" lon="106.7248"/>
      <trkpt lat="-6.55626" lon="106.72474"/>
      <trkpt lat="-6.55628" lon="106.72452"/>
      <trkpt lat="-6.5563" lon="106.72429"/>
      <trkpt lat="-6.55632" lon="106.72421"/>
      <trkpt lat="-6.5564" lon="106.7241"/>
      <trkpt lat="-6.55641" lon="106.72409"/>
      <trkpt lat="-6.55669" lon="106.72394"/>
      <trkpt lat="-6.55676" lon="106.72386"/>
      <trkpt lat="-6.55678" lon="106.72378"/>
      <trkpt lat="-6.55676" lon="106.72339"/>
      <trkpt lat="-6.55675" lon="106.72308"/>
      <trkpt lat="-6.55674" lon="106.72253"/>
      <trkpt lat="-6.55673" lon="106.72225"/>
      <trkpt lat="-6.55673" lon="106.72174"/>
      <trkpt lat="-6.55672" lon="106.72166"/>
      <trkpt lat="-6.5567" lon="106.7215"/>
      <trkpt lat="-6.55668" lon="106.72142"/>
      <trkpt lat="-6.55652" lon="106.72096"/>
      <trkpt lat="-6.55629" lon="106.72037"/>
      <trkpt lat="-6.55625" lon="106.72012"/>
      <trkpt lat="-6.55626" lon="106.71999"/>
      <trkpt lat="-6.55628" lon="106.71979"/>
      <trkpt lat="-6.55634" lon="106.71967"/>
      <trkpt lat="-6.55647" lon="106.71952"/>
      <trkpt lat="-6.5566" lon="106.71941"/>
      <trkpt lat="-6.55662" lon="106.71939"/>
      <trkpt lat="-6.5566" lon="106.71941"/>
      <trkpt lat="-6.55642" lon="106.71924"/>
      <trkpt lat="-6.55623" lon="106.71896"/>
      <trkpt lat="-6.55614" lon="106.71875"/>
      <trkpt lat="-6.55558" lon="106.7177"/>
      <trkpt lat="-6.55534" lon="106.71758"/>
      <trkpt lat="-6.55511" lon="106.7175"/>
      <trkpt lat="-6.55495" lon="106.71745"/>
      <trkpt lat="-6.55475" lon="106.71733"/>
      <trkpt lat="-6.55429" lon="106.7168"/>
      <trkpt lat="-6.55358" lon="106.71607"/>
      <trkpt lat="-6.55231" lon="106.71461"/>
      <trkpt lat="-6.55216" lon="106.71437"/>
      <trkpt lat="-6.55191" lon="106.71384"/>
      <trkpt lat="-6.55174" lon="106.71364"/>
      <trkpt lat="-6.55169" lon="106.71361"/>
      <trkpt lat="-6.55153" lon="106.71359"/>
      <trkpt lat="-6.55092" lon="106.71366"/>
      <trkpt lat="-6.55065" lon="106.71368"/>
      <trkpt lat="-6.55058" lon="106.71371"/>
      <trkpt lat="-6.5505" lon="106.71375"/>
      <trkpt lat="-6.55042" lon="106.71379"/>
      <trkpt lat="-6.55027" lon="106.714"/>
      <trkpt lat="-6.54995" lon="106.71469"/>
      <trkpt lat="-6.54974" lon="106.71525"/>
      <trkpt lat="-6.54957" lon="106.71537"/>
      <trkpt lat="-6.54914" lon="106.71549"/>
      <trkpt lat="-6.54851" lon="106.71562"/>
      <trkpt lat="-6.54838" lon="106.71563"/>
      <trkpt lat="-6.54805" lon="106.71559"/>
      <trkpt lat="-6.54765" lon="106.71557"/>
      <trkpt lat="-6.5472" lon="106.71551"/>
      <trkpt lat="-6.54628" lon="106.71539"/>
      <trkpt lat="-6.54615" lon="106.71539"/>
      <trkpt lat="-6.54606" lon="106.71539"/>
      <trkpt lat="-6.54544" lon="106.71537"/>
      <trkpt lat="-6.54546" lon="106.71596"/>
      <trkpt lat="-6.54547" lon="106.71615"/>
      <trkpt lat="-6.54554" lon="106.71642"/>
      <trkpt lat="-6.54562" lon="106.71665"/>
      <trkpt lat="-6.5457" lon="106.71684"/>
      <trkpt lat="-6.54587" lon="106.71704"/>
      <trkpt lat="-6.54607" lon="106.71723"/>
      <trkpt lat="-6.5464" lon="106.71748"/>
      <trkpt lat="-6.54659" lon="106.71765"/>
      <trkpt lat="-6.54681" lon="106.71787"/>
      <trkpt lat="-6.54696" lon="106.71809"/>
      <trkpt lat="-6.54727" lon="106.71886"/>
      <trkpt lat="-6.54744" lon="106.7192"/>
      <trkpt lat="-6.54768" lon="106.7194"/>
      <trkpt lat="-6.548" lon="106.71942"/>
      <trkpt lat="-6.54832" lon="106.71941"/>
      <trkpt lat="-6.54848" lon="106.7195"/>
      <trkpt lat="-6.54861" lon="106.7197"/>
      <trkpt lat="-6.5487" lon="106.72078"/>
      <trkpt lat="-6.54878" lon="106.72088"/>
      <trkpt lat="-6.54892" lon="106.72094"/>
      <trkpt lat="-6.54909" lon="106.72094"/>
      <trkpt lat="-6.54953" lon="106.72068"/>
      <trkpt lat="-6.54968" lon="106.72065"/>
      <trkpt lat="-6.54984" lon="106.72066"/>
      <trkpt lat="-6.55042" lon="106.72087"/>
      <trkpt lat="-6.55051" lon="106.721"/>
      <trkpt lat="-6.55057" lon="106.72124"/>
      <trkpt lat="-6.55057" lon="106.7217"/>
      <trkpt lat="-6.55051" lon="106.72192"/>
      <trkpt lat="-6.55036" lon="106.72211"/>
      <trkpt lat="-6.54995" lon="106.72242"/>
      <trkpt lat="-6.54985" lon="106.72261"/>
      <trkpt lat="-6.54981" lon="106.72284"/>
      <trkpt lat="-6.54985" lon="106.72317"/>
      <trkpt lat="-6.55013" lon="106.72452"/>
      <trkpt lat="-6.55033" lon="106.72485"/>
      <trkpt lat="-6.55104" lon="106.72552"/>
      <trkpt lat="-6.5514" lon="106.72591"/>
      <trkpt lat="-6.55185" lon="106.72643"/>
      <trkpt lat="-6.5522" lon="106.72691"/>
      <trkpt lat="-6.55235" lon="106.72696"/>
      <trkpt lat="-6.55241" lon="106.72698"/>
      <trkpt lat="-6.55361" lon="106.72752"/>
      <trkpt lat="-6.55369" lon="106.72756"/>
      <trkpt lat="-6.55498" lon="106.72819"/>
      <trkpt lat="-6.55526" lon="106.72828"/>
      <trkpt lat="-6.55533" lon="106.72835"/>
      <trkpt lat="-6.55534" lon="106.72842"/>
      <trkpt lat="-6.55543" lon="106.72895"/>
      <trkpt lat="-6.55544" lon="106.72899"/>
      <trkpt lat="-6.55547" lon="106.72901"/>
      <trkpt lat="-6.55563" lon="106.72906"/>
      <trkpt lat="-6.55571" lon="106.72908"/>
      <trkpt lat="-6.55571" lon="106.72911"/>
      <trkpt lat="-6.55571" lon="106.72916"/>
      <trkpt lat="-6.55569" lon="106.72983"/>
      <trkpt lat="-6.55569" lon="106.72991"/>
      <trkpt lat="-6.55566" lon="106.73"/>
      <trkpt lat="-6.55565" lon="106.73008"/>
      <trkpt lat="-6.55566" lon="106.73048"/>
      <trkpt lat="-6.55566" lon="106.73065"/>
      <trkpt lat="-6.55566" lon="106.73094"/>
      <trkpt lat="-6.55566" lon="106.73104"/>
      <trkpt lat="-6.55567" lon="106.73118"/>
      <trkpt lat="-6.55567" lon="106.73119"/>
      <trkpt lat="-6.5557" lon="106.73135"/>
      <trkpt lat="-6.55572" lon="106.7314"/>
      <trkpt lat="-6.55576" lon="106.7315"/>
      <trkpt lat="-6.55583" lon="106.73159"/>
      <trkpt lat="-6.55586" lon="106.73162"/>
      <trkpt lat="-6.5559" lon="106.73165"/>
      <trkpt lat="-6.55601" lon="106.73172"/>
      <trkpt lat="-6.55619" lon="106.73176"/>
      <trkpt lat="-6.55632" lon="106.73177"/>
      <trkpt lat="-6.55656" lon="106.73176"/>
      <trkpt lat="-6.55682" lon="106.73176"/>
      <trkpt lat="-6.55685" lon="106.73176"/>
      <trkpt lat="-6.55713" lon="106.73176"/>
      <trkpt lat="-6.55735" lon="106.73176"/>
      <trkpt lat="-6.55758" lon="106.73176"/>
      <trkpt lat="-6.55773" lon="106.73169"/>
      <trkpt lat="-6.55795" lon="106.73159"/>
      <trkpt lat="-6.55799" lon="106.73155"/>
      <trkpt lat="-6.55803" lon="106.7315"/>
      <trkpt lat="-6.55809" lon="106.73147"/>
      <trkpt lat="-6.55876" lon="106.73104"/>
      <trkpt lat="-6.55894" lon="106.73095"/>
      <trkpt lat="-6.559" lon="106.73092"/>
      <trkpt lat="-6.55926" lon="106.73078"/>
      <trkpt lat="-6.55939" lon="106.73071"/>
      <trkpt lat="-6.55962" lon="106.73056"/>
      <trkpt lat="-6.55973" lon="106.73049"/>
      <trkpt lat="-6.55992" lon="106.73034"/>
      <trkpt lat="-6.55984" lon="106.72904"/>
      <trkpt lat="-6.55969" lon="106.72806"/>
      <trkpt lat="-6.55963" lon="106.72793"/>
      <trkpt lat="-6.55947" lon="106.72776"/>
      <trkpt lat="-6.55931" lon="106.72763"/>
      <trkpt lat="-6.55914" lon="106.72747"/>
      <trkpt lat="-6.55907" lon="106.7273"/>
      <trkpt lat="-6.55904" lon="106.72722"/>
      <trkpt lat="-6.55885" lon="106.72712"/>
      <trkpt lat="-6.55873" lon="106.72705"/>
      <trkpt lat="-6.55875" lon="106.727"/>
      <trkpt lat="-6.55874" lon="106.72697"/>
      <trkpt lat="-6.55823" lon="106.72671"/>
      <trkpt lat="-6.55819" lon="106.72678"/>
      <trkpt lat="-6.55816" lon="106.72684"/>
      <trkpt lat="-6.55814" lon="106.72689"/>
      <trkpt lat="-6.55814" lon="106.72717"/>
      <trkpt lat="-6.5581" lon="106.72776"/>
      <trkpt lat="-6.55801" lon="106.72795"/>
      <trkpt lat="-6.55792" lon="106.72806"/>
      <trkpt lat="-6.55789" lon="106.72817"/>
      <trkpt lat="-6.55787" lon="106.72831"/>
      <trkpt lat="-6.55788" lon="106.72874"/>
      <trkpt lat="-6.55789" lon="106.72879"/>
      <trkpt lat="-6.5579" lon="106.72919"/>
      <trkpt lat="-6.5579" lon="106.72973"/>
      <trkpt lat="-6.55788" lon="106.7298"/>
      <trkpt lat="-6.55771" lon="106.72997"/>
      <trkpt lat="-6.55761" lon="106.72995"/>
      <trkpt lat="-6.55721" lon="106.72998"/>
      <trkpt lat="-6.55719" lon="106.72998"/>
      <trkpt lat="-6.55721" lon="106.72922"/>
      <trkpt lat="-6.55723" lon="106.72919"/>
      <trkpt lat="-6.55724" lon="106.72918"/>
      <trkpt lat="-6.55727" lon="106.72918"/>
      <trkpt lat="-6.55738" lon="106.72918"/>
      <trkpt lat="-6.55756" lon="106.72918"/>
      <trkpt lat="-6.5579" lon="106.72919"/>
      <trkpt lat="-6.5579" lon="106.72918"/>
      <trkpt lat="-6.55789" lon="106.72879"/>
      <trkpt lat="-6.55788" lon="106.72874"/>
      <trkpt lat="-6.55787" lon="106.72831"/>
      <trkpt lat="-6.55789" lon="106.72817"/>
      <trkpt lat="-6.55792" lon="106.72806"/>
      <trkpt lat="-6.55801" lon="106.72795"/>
      <trkpt lat="-6.5581" lon="106.72776"/>
      <trkpt lat="-6.55814" lon="106.72717"/>
      <trkpt lat="-6.55814" lon="106.72689"/>
      <trkpt lat="-6.55794" lon="106.72687"/>
      <trkpt lat="-6.55744" lon="106.7268"/>
      <trkpt lat="-6.55725" lon="106.72672"/>
      <trkpt lat="-6.55714" lon="106.72665"/>
      <trkpt lat="-6.55691" lon="106.72651"/>
      <trkpt lat="-6.5568" lon="106.72641"/>
      <trkpt lat="-6.55677" lon="106.72627"/>
      <trkpt lat="-6.55661" lon="106.72583"/>
      <trkpt lat="-6.5566" lon="106.72584"/>
      <trkpt lat="-6.55661" lon="106.72583"/>
      <trkpt lat="-6.55662" lon="106.72575"/>
      <trkpt lat="-6.55657" lon="106.72569"/>
      <trkpt lat="-6.55654" lon="106.72567"/>
      <trkpt lat="-6.55653" lon="106.72545"/>
      <trkpt lat="-6.55651" lon="106.72539"/>
      <trkpt lat="-6.55647" lon="106.72527"/>
      <trkpt lat="-6.55628" lon="106.7248"/>
      <trkpt lat="-6.55626" lon="106.72474"/>
      <trkpt lat="-6.55628" lon="106.72452"/>
      <trkpt lat="-6.5563" lon="106.72429"/>
      <trkpt lat="-6.55632" lon="106.72421"/>
      <trkpt lat="-6.5564" lon="106.7241"/>
      <trkpt lat="-6.55669" lon="106.72394"/>
      <trkpt lat="-6.55676" lon="106.72386"/>
      <trkpt lat="-6.55678" lon="106.72378"/>
      <trkpt lat="-6.55676" lon="106.72339"/>
      <trkpt lat="-6.55675" lon="106.72308"/>
      <trkpt lat="-6.55674" lon="106.72253"/>
      <trkpt lat="-6.55673" lon="106.72225"/>
      <trkpt lat="-6.55673" lon="106.72174"/>
      <trkpt lat="-6.55672" lon="106.72166"/>
      <trkpt lat="-6.5567" lon="106.7215"/>
      <trkpt lat="-6.55668" lon="106.72142"/>
      <trkpt lat="-6.55652" lon="106.72096"/>
      <trkpt lat="-6.55629" lon="106.72037"/>
      <trkpt lat="-6.55625" lon="106.72012"/>
      <trkpt lat="-6.55626" lon="106.71999"/>
      <trkpt lat="-6.55628" lon="106.71979"/>
      <trkpt lat="-6.55634" lon="106.71967"/>
      <trkpt lat="-6.55647" lon="106.71952"/>
      <trkpt lat="-6.55648" lon="106.71952"/>
      <trkpt lat="-6.5566" lon="106.71941"/>
      <trkpt lat="-6.55661" lon="106.7194"/>
      <trkpt lat="-6.5566" lon="106.71941"/>
      <trkpt lat="-6.55642" lon="106.71924"/>
      <trkpt lat="-6.55623" lon="106.71896"/>
      <trkpt lat="-6.55614" lon="106.71875"/>
      <trkpt lat="-6.55558" lon="106.7177"/>
      <trkpt lat="-6.55534" lon="106.71758"/>
      <trkpt lat="-6.55511" lon="106.7175"/>
      <trkpt lat="-6.55495" lon="106.71745"/>
      <trkpt lat="-6.55475" lon="106.71733"/>
      <trkpt lat="-6.55429" lon="106.7168"/>
      <trkpt lat="-6.55358" lon="106.71607"/>
      <trkpt lat="-6.55251" lon="106.71484"/>
      <trkpt lat="-6.55231" lon="106.71461"/>
      <trkpt lat="-6.55216" lon="106.71437"/>
      <trkpt lat="-6.55191" lon="106.71384"/>
      <trkpt lat="-6.55174" lon="106.71364"/>
      <trkpt lat="-6.55169" lon="106.71361"/>
      <trkpt lat="-6.55153" lon="106.71359"/>
      <trkpt lat="-6.55092" lon="106.71366"/>
      <trkpt lat="-6.55065" lon="106.71368"/>
      <trkpt lat="-6.5505" lon="106.71375"/>
      <trkpt lat="-6.55042" lon="106.71379"/>
      <trkpt lat="-6.55027" lon="106.714"/>
      <trkpt lat="-6.54995" lon="106.71469"/>
      <trkpt lat="-6.54997" lon="106.71469"/>
      <trkpt lat="-6.55052" lon="106.71481"/>
      <trkpt lat="-6.55175" lon="106.71503"/>
      <trkpt lat="-6.55195" lon="106.71508"/>
      <trkpt lat="-6.55197" lon="106.71509"/>
      <trkpt lat="-6.55195" lon="106.71508"/>
      <trkpt lat="-6.55192" lon="106.71611"/>
      <trkpt lat="-6.55194" lon="106.71623"/>
      <trkpt lat="-6.55235" lon="106.71728"/>
      <trkpt lat="-6.55242" lon="106.71754"/>
      <trkpt lat="-6.55245" lon="106.71782"/>
      <trkpt lat="-6.55244" lon="106.7181"/>
      <trkpt lat="-6.5524" lon="106.71834"/>
      <trkpt lat="-6.55236" lon="106.71883"/>
      <trkpt lat="-6.55234" lon="106.71883"/>
      <trkpt lat="-6.55184" lon="106.71882"/>
      <trkpt lat="-6.55061" lon="106.7189"/>
      <trkpt lat="-6.55042" lon="106.7189"/>
      <trkpt lat="-6.55043" lon="106.71942"/>
      <trkpt lat="-6.55044" lon="106.7197"/>
      <trkpt lat="-6.55048" lon="106.7198"/>
      <trkpt lat="-6.55052" lon="106.71986"/>
      <trkpt lat="-6.5506" lon="106.71987"/>
      <trkpt lat="-6.55232" lon="106.71974"/>
      <trkpt lat="-6.55232" lon="106.71977"/>
      <trkpt lat="-6.55234" lon="106.72001"/>
      <trkpt lat="-6.55239" lon="106.72024"/>
      <trkpt lat="-6.55253" lon="106.72065"/>
      <trkpt lat="-6.55265" lon="106.72084"/>
      <trkpt lat="-6.55286" lon="106.72106"/>
      <trkpt lat="-6.55346" lon="106.72169"/>
      <trkpt lat="-6.55347" lon="106.72169"/>
      <trkpt lat="-6.55287" lon="106.72211"/>
      <trkpt lat="-6.55309" lon="106.72253"/>
      <trkpt lat="-6.55318" lon="106.72293"/>
      <trkpt lat="-6.55323" lon="106.72374"/>
      <trkpt lat="-6.55339" lon="106.72373"/>
      <trkpt lat="-6.55392" lon="106.72371"/>
      <trkpt lat="-6.55398" lon="106.72377"/>
      <trkpt lat="-6.55438" lon="106.724"/>
      <trkpt lat="-6.55449" lon="106.72406"/>
      <trkpt lat="-6.55493" lon="106.72431"/>
      <trkpt lat="-6.55548" lon="106.72467"/>
      <trkpt lat="-6.55576" lon="106.72484"/>
      <trkpt lat="-6.55593" lon="106.72495"/>
      <trkpt lat="-6.55617" lon="106.72509"/>
      <trkpt lat="-6.5563" lon="106.72516"/>
      <trkpt lat="-6.55637" lon="106.7252"/>
      <trkpt lat="-6.5564" lon="106.72528"/>
      <trkpt lat="-6.55647" lon="106.72542"/>
      <trkpt lat="-6.55648" lon="106.72562"/>
      <trkpt lat="-6.55649" lon="106.72568"/>
      <trkpt lat="-6.55644" lon="106.7257"/>
      <trkpt lat="-6.55641" lon="106.72575"/>
      <trkpt lat="-6.55641" lon="106.72581"/>
      <trkpt lat="-6.55644" lon="106.72586"/>
      <trkpt lat="-6.55634" lon="106.72628"/>
      <trkpt lat="-6.55633" lon="106.72634"/>
      <trkpt lat="-6.55633" lon="106.7264"/>
      <trkpt lat="-6.55614" lon="106.72679"/>
      <trkpt lat="-6.55608" lon="106.72695"/>
      <trkpt lat="-6.55606" lon="106.72718"/>
      <trkpt lat="-6.55603" lon="106.72771"/>
      <trkpt lat="-6.55599" lon="106.72783"/>
      <trkpt lat="-6.55581" lon="106.72801"/>
      <trkpt lat="-6.55573" lon="106.72815"/>
      <trkpt lat="-6.55569" lon="106.72831"/>
      <trkpt lat="-6.55571" lon="106.72908"/>
      <trkpt lat="-6.55571" lon="106.72916"/>
      <trkpt lat="-6.55569" lon="106.72991"/>
      <trkpt lat="-6.55566" lon="106.73"/>
      <trkpt lat="-6.55565" lon="106.73008"/>
      <trkpt lat="-6.55566" lon="106.73037"/>
      <trkpt lat="-6.55566" lon="106.73048"/>
      <trkpt lat="-6.55566" lon="106.73065"/>
      <trkpt lat="-6.55566" lon="106.73082"/>
      <trkpt lat="-6.55566" lon="106.73104"/>
      <trkpt lat="-6.55567" lon="106.73118"/>
      <trkpt lat="-6.5557" lon="106.73133"/>
      <trkpt lat="-6.5557" lon="106.73135"/>
      <trkpt lat="-6.55576" lon="106.7315"/>
      <trkpt lat="-6.55583" lon="106.73159"/>
      <trkpt lat="-6.55586" lon="106.73162"/>
      <trkpt lat="-6.55599" lon="106.73171"/>
      <trkpt lat="-6.55601" lon="106.73172"/>
      <trkpt lat="-6.55619" lon="106.73176"/>
      <trkpt lat="-6.55632" lon="106.73177"/>
      <trkpt lat="-6.55644" lon="106.73177"/>
      <trkpt lat="-6.55682" lon="106.73176"/>
      <trkpt lat="-6.55691" lon="106.73176"/>
      <trkpt lat="-6.55713" lon="106.73176"/>
      <trkpt lat="-6.5575" lon="106.73176"/>
      <trkpt lat="-6.55758" lon="106.73176"/>
      <trkpt lat="-6.55794" lon="106.73159"/>
      <trkpt lat="-6.55795" lon="106.73159"/>
      <trkpt lat="-6.55799" lon="106.73155"/>
      <trkpt lat="-6.55803" lon="106.7315"/>
      <trkpt lat="-6.55809" lon="106.73147"/>
      <trkpt lat="-6.55876" lon="106.73104"/>
      <trkpt lat="-6.55894" lon="106.73095"/>
      <trkpt lat="-6.559" lon="106.73092"/>
      <trkpt lat="-6.55926" lon="106.73078"/>
      <trkpt lat="-6.55939" lon="106.73071"/>
      <trkpt lat="-6.55962" lon="106.73056"/>
      <trkpt lat="-6.55973" lon="106.73049"/>
      <trkpt lat="-6.55992" lon="106.73034"/>
      <trkpt lat="-6.55998" lon="106.73031"/>
      <trkpt lat="-6.56034" lon="106.73012"/>
      <trkpt lat="-6.56055" lon="106.73011"/>
      <trkpt lat="-6.56087" lon="106.7301"/>
      <trkpt lat="-6.56088" lon="106.72973"/>
      <trkpt lat="-6.56085" lon="106.72661"/>
      <trkpt lat="-6.56085" lon="106.7265"/>
      <trkpt lat="-6.56085" lon="106.72636"/>
      <trkpt lat="-6.56084" lon="106.72613"/>
    </trkseg>
  </trk>
</gpx>