<?xml version="1.0" encoding="UTF-8" standalone="yes"?>
<gpx version="1.1" creator="https://onthegomap.com" xmlns="http://www.topografix.com/GPX/1/1">
  <metadata>
    <name>5.2km route</name>
    <link href="https://onthegomap.com">
      <text>On The Go Map</text>
    </link>
    <time>2026-05-28T18:09:19.898Z</time>
    <copyright author="On The Go Map, OpenStreetMap Contributors">
      <year>2026</year>
    </copyright>
  </metadata>
  <trk>
    <name>5.2km route</name>
    <trkseg>
      <trkpt lat="-6.56084" lon="106.72611"/>
      <trkpt lat="-6.56083" lon="106.72584"/>
      <trkpt lat="-6.5608" lon="106.72551"/>
      <trkpt lat="-6.56057" lon="106.72539"/>
      <trkpt lat="-6.56019" lon="106.72519"/>
      <trkpt lat="-6.56017" lon="106.72515"/>
      <trkpt lat="-6.56016" lon="106.7239"/>
      <trkpt lat="-6.56015" lon="106.7224"/>
      <trkpt lat="-6.56016" lon="106.72195"/>
      <trkpt lat="-6.56007" lon="106.72166"/>
      <trkpt lat="-6.55975" lon="106.72106"/>
      <trkpt lat="-6.55943" lon="106.72054"/>
      <trkpt lat="-6.55926" lon="106.72029"/>
      <trkpt lat="-6.55919" lon="106.72021"/>
      <trkpt lat="-6.55902" lon="106.7201"/>
      <trkpt lat="-6.55882" lon="106.72004"/>
      <trkpt lat="-6.55868" lon="106.72002"/>
      <trkpt lat="-6.55819" lon="106.71993"/>
      <trkpt lat="-6.55791" lon="106.71947"/>
      <trkpt lat="-6.55778" lon="106.71926"/>
      <trkpt lat="-6.55762" lon="106.71913"/>
      <trkpt lat="-6.5575" lon="106.71907"/>
      <trkpt lat="-6.5574" lon="106.71904"/>
      <trkpt lat="-6.55727" lon="106.71904"/>
      <trkpt lat="-6.55714" lon="106.71905"/>
      <trkpt lat="-6.55705" lon="106.71908"/>
      <trkpt lat="-6.55689" lon="106.71919"/>
      <trkpt lat="-6.5566" lon="106.71941"/>
      <trkpt lat="-6.55647" lon="106.71952"/>
      <trkpt lat="-6.55634" lon="106.71968"/>
      <trkpt lat="-6.55628" lon="106.71979"/>
      <trkpt lat="-6.55626" lon="106.71988"/>
      <trkpt lat="-6.55626" lon="106.71999"/>
      <trkpt lat="-6.55625" lon="106.72012"/>
      <trkpt lat="-6.55628" lon="106.72027"/>
      <trkpt lat="-6.5563" lon="106.72037"/>
      <trkpt lat="-6.55654" lon="106.721"/>
      <trkpt lat="-6.55668" lon="106.72142"/>
      <trkpt lat="-6.5567" lon="106.72151"/>
      <trkpt lat="-6.55672" lon="106.72166"/>
      <trkpt lat="-6.55673" lon="106.72174"/>
      <trkpt lat="-6.55673" lon="106.72215"/>
      <trkpt lat="-6.55673" lon="106.72225"/>
      <trkpt lat="-6.55674" lon="106.72253"/>
      <trkpt lat="-6.55675" lon="106.72283"/>
      <trkpt lat="-6.55675" lon="106.72308"/>
      <trkpt lat="-6.55676" lon="106.72339"/>
      <trkpt lat="-6.55677" lon="106.72353"/>
      <trkpt lat="-6.55678" lon="106.72378"/>
      <trkpt lat="-6.55676" lon="106.72386"/>
      <trkpt lat="-6.55669" lon="106.72394"/>
      <trkpt lat="-6.55663" lon="106.72397"/>
      <trkpt lat="-6.5564" lon="106.7241"/>
      <trkpt lat="-6.55583" lon="106.72407"/>
      <trkpt lat="-6.55582" lon="106.72407"/>
      <trkpt lat="-6.55584" lon="106.72306"/>
      <trkpt lat="-6.55384" lon="106.72299"/>
      <trkpt lat="-6.55383" lon="106.72292"/>
      <trkpt lat="-6.55377" lon="106.72218"/>
      <trkpt lat="-6.55373" lon="106.72207"/>
      <trkpt lat="-6.55347" lon="106.7217"/>
      <trkpt lat="-6.55347" lon="106.72169"/>
      <trkpt lat="-6.55287" lon="106.72211"/>
      <trkpt lat="-6.55309" lon="106.72253"/>
      <trkpt lat="-6.55318" lon="106.72293"/>
      <trkpt lat="-6.55323" lon="106.72373"/>
      <trkpt lat="-6.55243" lon="106.72378"/>
      <trkpt lat="-6.55246" lon="106.72396"/>
      <trkpt lat="-6.55323" lon="106.72392"/>
      <trkpt lat="-6.55385" lon="106.72391"/>
      <trkpt lat="-6.55398" lon="106.72377"/>
      <trkpt lat="-6.55438" lon="106.724"/>
      <trkpt lat="-6.55449" lon="106.72406"/>
      <trkpt lat="-6.55493" lon="106.72431"/>
      <trkpt lat="-6.55548" lon="106.72467"/>
      <trkpt lat="-6.55576" lon="106.72484"/>
      <trkpt lat="-6.55593" lon="106.72495"/>
      <trkpt lat="-6.55617" lon="106.72509"/>
      <trkpt lat="-6.55637" lon="106.7252"/>
      <trkpt lat="-6.5564" lon="106.72528"/>
      <trkpt lat="-6.55647" lon="106.72542"/>
      <trkpt lat="-6.55648" lon="106.72562"/>
      <trkpt lat="-6.55649" lon="106.72568"/>
      <trkpt lat="-6.55644" lon="106.7257"/>
      <trkpt lat="-6.55642" lon="106.72572"/>
      <trkpt lat="-6.55641" lon="106.72578"/>
      <trkpt lat="-6.55642" lon="106.72584"/>
      <trkpt lat="-6.55644" lon="106.72586"/>
      <trkpt lat="-6.55649" lon="106.72589"/>
      <trkpt lat="-6.55652" lon="106.72589"/>
      <trkpt lat="-6.55655" lon="106.72589"/>
      <trkpt lat="-6.5566" lon="106.72586"/>
      <trkpt lat="-6.55661" lon="106.72583"/>
      <trkpt lat="-6.55677" lon="106.72627"/>
      <trkpt lat="-6.5568" lon="106.7264"/>
      <trkpt lat="-6.5568" lon="106.72641"/>
      <trkpt lat="-6.55691" lon="106.72651"/>
      <trkpt lat="-6.55714" lon="106.72665"/>
      <trkpt lat="-6.55725" lon="106.72672"/>
      <trkpt lat="-6.55744" lon="106.7268"/>
      <trkpt lat="-6.55794" lon="106.72687"/>
      <trkpt lat="-6.55813" lon="106.72689"/>
      <trkpt lat="-6.55814" lon="106.72689"/>
      <trkpt lat="-6.55814" lon="106.72717"/>
      <trkpt lat="-6.5581" lon="106.72776"/>
      <trkpt lat="-6.55801" lon="106.72795"/>
      <trkpt lat="-6.55792" lon="106.72806"/>
      <trkpt lat="-6.55789" lon="106.72817"/>
      <trkpt lat="-6.55787" lon="106.72831"/>
      <trkpt lat="-6.55788" lon="106.72874"/>
      <trkpt lat="-6.55789" lon="106.72879"/>
      <trkpt lat="-6.5579" lon="106.72919"/>
      <trkpt lat="-6.5579" lon="106.72955"/>
      <trkpt lat="-6.5579" lon="106.72973"/>
      <trkpt lat="-6.55788" lon="106.7298"/>
      <trkpt lat="-6.55771" lon="106.72997"/>
      <trkpt lat="-6.55761" lon="106.72995"/>
      <trkpt lat="-6.55719" lon="106.72998"/>
      <trkpt lat="-6.55688" lon="106.72998"/>
      <trkpt lat="-6.55566" lon="106.73"/>
      <trkpt lat="-6.55567" lon="106.73118"/>
      <trkpt lat="-6.55571" lon="106.73136"/>
      <trkpt lat="-6.55576" lon="106.7315"/>
      <trkpt lat="-6.55583" lon="106.7316"/>
      <trkpt lat="-6.55601" lon="106.73172"/>
      <trkpt lat="-6.55619" lon="106.73176"/>
      <trkpt lat="-6.55631" lon="106.73177"/>
      <trkpt lat="-6.55671" lon="106.73176"/>
      <trkpt lat="-6.55713" lon="106.73176"/>
      <trkpt lat="-6.55758" lon="106.73176"/>
      <trkpt lat="-6.55795" lon="106.73159"/>
      <trkpt lat="-6.55799" lon="106.73155"/>
      <trkpt lat="-6.55803" lon="106.7315"/>
      <trkpt lat="-6.55809" lon="106.73147"/>
      <trkpt lat="-6.55876" lon="106.73104"/>
      <trkpt lat="-6.55894" lon="106.73095"/>
      <trkpt lat="-6.559" lon="106.73092"/>
      <trkpt lat="-6.55926" lon="106.73078"/>
      <trkpt lat="-6.55939" lon="106.73071"/>
      <trkpt lat="-6.55962" lon="106.73056"/>
      <trkpt lat="-6.55973" lon="106.73049"/>
      <trkpt lat="-6.55992" lon="106.73034"/>
      <trkpt lat="-6.55998" lon="106.73031"/>
      <trkpt lat="-6.56034" lon="106.73012"/>
      <trkpt lat="-6.56055" lon="106.73011"/>
      <trkpt lat="-6.56087" lon="106.7301"/>
      <trkpt lat="-6.56087" lon="106.73008"/>
      <trkpt lat="-6.56088" lon="106.72973"/>
      <trkpt lat="-6.56085" lon="106.72661"/>
      <trkpt lat="-6.56085" lon="106.7265"/>
      <trkpt lat="-6.56085" lon="106.72636"/>
      <trkpt lat="-6.56084" lon="106.72613"/>
    </trkseg>
  </trk>
</gpx>